ID,Program,Level,Status,EnrolledYear,Quota,Faculty,EducationLevel,SchoolCode,entry2553_GPAX,Thai,PhysicalAct,Math,Art,Science,Industrial,Social,English,SchoolName,Town,Province,PostCode
5813403184,ไม่แยกสาขา,1,10,2558,,,ม.6,1010340901,3.05,3.5,3.16,2.89,3.75,3.05,3.75,3.2,2.63,น้ำยืนวิทยา,น้ำยืน,อุบลราชธานี,34260
5813405511,ไม่แยกสาขา,1,10,2558,,,ม.6,1010340901,3.78,3.75,3.5,3.93,4,3.8,4,3.5,3.66,น้ำยืนวิทยา,น้ำยืน,อุบลราชธานี,34260
5813405474,ไม่แยกสาขา,1,10,2558,,,ม.6,1011331201,3.13,3.25,3.93,3.62,3.25,3.04,3.75,3.45,3,ห้วยทับทันวิทยาคม,ห้วยทับทัน,ศรีสะเกษ,33210
5813402972,ไม่แยกสาขา,1,10,2558,,,ม.6,1010350301,3.85,4,4,4,3.62,3.72,3.94,3.95,3.79,กุดชุมวิทยาคม,กุดชุม,ยโสธร,35140
5813404613,ไม่แยกสาขา,1,10,2558,,,ม.6,3033100113,3.96,3.88,3.58,4,4,4,3.93,4,4,โคกสะอาดวิทยาคม,โนนคูณ,ศรีสะเกษ,33250
5813405456,ไม่แยกสาขา,1,10,2558,,,ม.6,3033100126,3.91,3.87,4,4,4,3.8,4,3.92,3.94,สายธารวิทยา,กันทรลักษ์,ศรีสะเกษ,33110
5813404759,ไม่แยกสาขา,1,10,2558,,,ม.6,1010340705,3.57,3.72,3.93,3.56,4,3.35,3.71,3.63,3.62,ท่าโพธิ์ศรีพิทยา,เดชอุดม,อุบลราชธานี,34160
5813404097,ไม่แยกสาขา,1,10,2558,,,ม.6,3034100101,3.44,3.33,3.77,3.16,3.75,3.31,3.83,3.69,3.76,พิบูลมังสาหาร,พิบูลมังสาหาร,อุบลราชธานี,34110
5813400903,ไม่แยกสาขา,1,10,2558,,,ม.6,1011320903,3.48,3.37,4,3.44,4,3.41,3.64,3.39,3.37,ห้วยจริงวิทยา,ศีขรภูมิ,สุรินทร์,32110
5813400718,ไม่แยกสาขา,1,10,2558,,,ม.6,1010341101,3.48,3.75,3.75,3.1,3.62,3.43,3.8,3.31,3.68,มัธยมตระการพืชผล,ตระการพืชผล,อุบลราชธานี,34130
5813403325,ไม่แยกสาขา,1,10,2558,,,ม.6,1010450402,3.79,3.75,3.87,4,3.87,3.61,4,3.8,3.87,โคกล่ามพิทยาคม,จตุรพักตรพิมาน,ร้อยเอ็ด,45180
5813406376,ไม่แยกสาขา,3,10,2558,,,ม.6,1011320701,3.52,4,4,3.13,4,3.57,3.91,3.59,3.24,รัตนบุรี,รัตนบุรี,สุรินทร์,32130
5813400572,ไม่แยกสาขา,1,10,2558,,,ม.6,1010341903,2.7,3.5,3.7,2.65,3.25,2.37,3,3.59,2.44,อ่างศิลา,พิบูลมังสาหาร,อุบลราชธานี,34110
5813405881,ไม่แยกสาขา,1,10,2558,,,ม.6,1011331301,3.64,3.5,3.87,3.77,3.83,3.51,3.9,3.75,3.19,โนนค้อวิทยาคม,โนนคูณ,ศรีสะเกษ,33250
5813404568,ไม่แยกสาขา,1,10,2558,,,ม.6,1010341501,2.99,2.77,3.5,2.67,3.87,2.56,3.75,3.62,2.98,ลือคำหาญวารินชำราบ,วารินชำราบ,อุบลราชธานี,34190
5813401381,ไม่แยกสาขา,1,10,2558,,,ม.6,3033100139,3.29,3.12,3.93,3.63,3.62,3.06,4,3.41,2.95,ขุนหาญวิทยาสรรค์,ขุนหาญ,ศรีสะเกษ,33150
5813403392,ไม่แยกสาขา,1,10,2558,,,ม.6,1010341401,3.17,3.75,4,3.06,4,2.84,3.87,3.75,2.61,ม่วงสามสิบอัมพวันวิทยา,ม่วงสามสิบ,อุบลราชธานี,34140
5813401872,ไม่แยกสาขา,1,10,2558,,,ม.6,1010341501,3.11,3.16,3.87,3.12,3.25,2.94,3.31,3.41,2.57,ลือคำหาญวารินชำราบ,วารินชำราบ,อุบลราชธานี,34190
5813405384,ไม่แยกสาขา,1,10,2558,,,ม.6,1010340705,3.4,3.44,3.94,3.43,4,3.3,3.62,3.59,2.81,ท่าโพธิ์ศรีพิทยา,เดชอุดม,อุบลราชธานี,34160
5813404088,ไม่แยกสาขา,1,10,2558,,,ม.6,1010342901,3.57,4,3.62,3.85,3.12,3.22,3.88,3.91,3.53,นาเยียศึกษา รัชมังคลาภิเษก,เดชอุดม,อุบลราชธานี,34160
5813401822,ไม่แยกสาขา,1,10,2558,,,ม.6,1010340701,3.27,3.87,3.87,3.21,4,2.97,3.66,3.15,3.29,เดชอุดม,เดชอุดม,อุบลราชธานี,34160
5813405094,ไม่แยกสาขา,1,10,2558,,,ม.6,1010340102,2.25,2.75,4,1.6,3.75,1.88,2.85,2.33,2.35,นารีนุกูล,เมือง,อุบลราชธานี,34000
5813403842,ไม่แยกสาขา,1,10,2558,,,ม.6,1010340701,3.33,3.87,3.68,3.56,3.87,2.92,3.6,3.45,3.06,เดชอุดม,เดชอุดม,อุบลราชธานี,34160
5813405710,ไม่แยกสาขา,1,10,2558,,,ม.6,1134100115,3.44,3.75,3.89,3.22,3.33,3.02,3.37,3.5,3.44,พรเมตตาคริสเตียน,นาตาล,อุบลราชธานี,34170
5813404882,ไม่แยกสาขา,1,10,2558,,,ม.6,1011320302,3.38,4,3.83,2.47,4,3.16,3.75,3.58,3.93,ลานทรายพิทยาคม,ท่าตูม,สุรินทร์,32120
5813406431,ไม่แยกสาขา,3,10,2558,,,ม.6,1010450102,3.01,3.62,3.81,2.75,4,2.4,3.85,3.4,3.2,สตรีศึกษา,เมือง,ร้อยเอ็ด,45000
5813402090,ไม่แยกสาขา,1,10,2558,,,ม.6,3034100112,3.93,3.25,4,3.92,4,4,4,4,4,นาสะไมพิทยาคม,ตระการพืชผล,อุบลราชธานี,34130
5813404027,ไม่แยกสาขา,1,10,2558,,,ม.6,1010341501,3.43,3.27,3.68,3.37,3.75,3.26,3.66,3.75,3.44,ลือคำหาญวารินชำราบ,วารินชำราบ,อุบลราชธานี,34190
5813402837,ไม่แยกสาขา,1,10,2558,,,ม.6,3034100109,3.26,3,4,3.12,3.12,3.2,3.5,3.9,3.04,น้ำขุ่นวิทยา,น้ำยืน,อุบลราชธานี,34260
5813402367,ไม่แยกสาขา,1,10,2558,,,ม.6,3034100109,3.24,2.62,4,3.37,3,3.16,3.33,3.81,2.86,น้ำขุ่นวิทยา,น้ำยืน,อุบลราชธานี,34260
5813403443,ไม่แยกสาขา,1,10,2558,,,ม.6,1011330301,3.47,3.87,4,2.97,3.5,3.47,3.68,3.5,3.8,กันทรารมณ์,กันทรารมย์,ศรีสะเกษ,33130
5813403193,ไม่แยกสาขา,1,10,2558,,,ม.6,3030100101,2.97,3.5,3.56,2.37,3.75,2.65,3.41,3.54,3.12,บัวใหญ่,บัวใหญ่,นครราชสีมา,30120
5813403280,ไม่แยกสาขา,1,10,2558,,,ม.6,1010343101,3.3,3.62,3.87,3.35,4,2.83,3.87,3.71,3.5,หกสิบพรรษาวิทยาคม อุบลราชธานี,เหล่าเสือโก้ก,อุบลราชธานี,34000
5813401258,ไม่แยกสาขา,1,10,2558,,,ม.6,1010370501,3.6,3.75,3.75,3.18,3.75,3.81,3.75,3.9,3.19,เสนางคนิคม,เสนางคนิคม,อำนาจเจริญ,37290
5813406669,ไม่แยกสาขา,3,10,2558,,,ม.6,1009400402,2.37,2.12,3.18,1.91,3,2.12,3,2.45,2.4,จระเข้วิทยายน,หนองเรือ,ขอนแก่น,40240
5813401695,ไม่แยกสาขา,1,10,2558,,,ม.6,1010370201,3.04,3.37,3.62,2.78,3.62,2.8,3.65,3.3,2.81,ชานุมานวิทยาคม,ชานุมาน,อำนาจเจริญ,37210
5813402259,ไม่แยกสาขา,1,10,2558,,,ม.6,1010341401,3.12,3.75,3.68,2.68,3.87,3.03,3.75,3.6,2.66,ม่วงสามสิบอัมพวันวิทยา,ม่วงสามสิบ,อุบลราชธานี,34140
5813402959,ไม่แยกสาขา,1,10,2558,,,ม.6,1011331201,3.69,3.87,4,3.72,4,3.5,4,3.95,3.56,ห้วยทับทันวิทยาคม,ห้วยทับทัน,ศรีสะเกษ,33210
5813401523,ไม่แยกสาขา,1,10,2558,,,ม.6,1010340401,3.95,4,3.93,4,4,3.92,3.9,3.93,4,เขื่องในพิทยาคาร,เขื่องใน,อุบลราชธานี,34150
5813406253,ไม่แยกสาขา,3,10,2558,,,ม.6,1010340202,2.77,3.75,2.87,1.8,4,2.58,3.34,3.73,2.36,เอือดใหญ่พิทยา,ศรีเมืองใหม่,อุบลราชธานี,34250
5813403576,ไม่แยกสาขา,1,10,2558,,,ม.6,1134100017,3.47,3.9,3.6,3.28,4,3.12,3.55,3.53,3.97,อาเวมารีอา,เมือง,อุบลราชธานี,34000
5813401190,ไม่แยกสาขา,1,10,2558,,,ม.6,1010340101,2.72,2.3,3.75,2.52,2.8,2.31,3.53,3.18,2.6,เบ็ญจะมะมหาราช,เมือง,อุบลราชธานี,34000
5813403412,ไม่แยกสาขา,1,10,2558,,,ม.6,1011330109,3.34,3.4,3.2,3.71,3.4,3.26,3.28,3.39,2.98,เฉลิมพระเกียรติสมเด็จพระศรีนครินทร์ ศรีสะเกษ,เมือง,ศรีสะเกษ,33000
5813406297,ไม่แยกสาขา,3,10,2558,,,ม.6,1010340705,2.4,2.57,3.56,1.5,3.5,2.29,3.15,3.13,1.71,ท่าโพธิ์ศรีพิทยา,เดชอุดม,อุบลราชธานี,34160
5813406281,ไม่แยกสาขา,3,10,2558,,,ม.6,3034100101,3.06,2.95,3.75,2.56,3.6,2.68,3.87,2.96,3.69,พิบูลมังสาหาร,พิบูลมังสาหาร,อุบลราชธานี,34110
5813401893,ไม่แยกสาขา,1,10,2558,,,ม.6,1010340101,2.6,2.9,3.6,2.2,2.7,2.3,3.42,2.9,2.25,เบ็ญจะมะมหาราช,เมือง,อุบลราชธานี,34000
5813404459,ไม่แยกสาขา,1,10,2558,,,ม.6,1011312201,2.39,2.7,3.35,1.9,3.1,2.03,3.38,2.84,1.81,แคนดงพิทยาคม,สตึก,บุรีรัมย์,31150
5813406656,ไม่แยกสาขา,3,10,2558,,,ม.6,1010480401,2.43,2.7,3.1,2.66,3.42,2.07,2.5,2.91,2.1,บ้านแพงพิทยาคม,บ้านแพง,นครพนม,48140
5813405831,ไม่แยกสาขา,1,10,2558,โควตาพื้นที่บริการ,"คณะวิศวกรรมศาสตร์""",ม.6,1010340102,2.62,3.2,3.7,1.96,4,2.26,3.53,2.64,2.7,นารีนุกูล,เมือง,อุบลราชธานี,34000
5813404365,ไม่แยกสาขา,1,10,2558,โควตาพื้นที่บริการ,"คณะวิศวกรรมศาสตร์""",ม.6,1010350403,3.82,4,3.95,3.8,4,3.81,4,3.82,3.55,กู่จานวิทยาคม,คำเขื่อนแก้ว,ยโสธร,35110
5813401127,ไม่แยกสาขา,1,10,2558,โควตาพื้นที่บริการ,"คณะวิศวกรรมศาสตร์""",ม.6,1010340701,2.58,2.7,3.45,1.83,3.9,2.38,3.32,2.84,2.35,เดชอุดม,เดชอุดม,อุบลราชธานี,34160
5813402553,ไม่แยกสาขา,1,10,2558,โควตาพื้นที่บริการ,"คณะวิศวกรรมศาสตร์""",ม.6,3034200301,2.39,2.5,3.75,2.05,3.33,1.82,2.81,3.13,1.92,เทศบาล 1 (บ้านโพธิ์กลาง),พิบูลมังสาหาร,อุบลราชธานี,34110
5813404532,ไม่แยกสาขา,1,10,2558,โควตาพื้นที่บริการ,"คณะวิศวกรรมศาสตร์""",ปวส./อนุปริญญา,1334016101,2.5,3.5,4,2,2,1.5,2,3,1,วิทยาลัยเทคนิคอุบลราชธานี,เมือง,อุบลราชธานี,34000
5813403527,ไม่แยกสาขา,1,10,2558,โควตาพื้นที่บริการ,"คณะวิศวกรรมศาสตร์""",ม.6,1010341501,2.6,2.8,3.55,2.7,3.5,2.29,3.25,3.36,1.97,ลือคำหาญวารินชำราบ,วารินชำราบ,อุบลราชธานี,34190
5813401235,ไม่แยกสาขา,1,10,2558,โควตาพื้นที่บริการ,"คณะวิศวกรรมศาสตร์""",ม.6,1011331601,3.89,3.7,4,3.92,3.9,3.93,4,3.66,3.91,นครศรีลำดวนวิทยา,วังหิน,ศรีสะเกษ,33270
5813402073,ไม่แยกสาขา,1,10,2558,โควตาพื้นที่บริการ,"คณะวิศวกรรมศาสตร์""",ม.6,1010340102,2.79,3,3.8,2.32,4,2.66,3.42,2.92,2.65,นารีนุกูล,เมือง,อุบลราชธานี,34000
5813403930,ไม่แยกสาขา,1,10,2558,โควตาพื้นที่ภาคอื่น,"คณะวิศวกรรมศาสตร์""",ม.6,1007530102,2.83,2.75,3.75,2.6,3,2.58,3.5,3.9,2.3,อุตรดิตถ์ดรุณี,,อุตรดิตถ์,
5813404961,ไม่แยกสาขา,1,10,2558,โควตาพื้นที่บริการ,"คณะวิศวกรรมศาสตร์""",ม.6,1010341501,3.01,3,3.9,2.76,3.7,2.89,3.87,3.5,2.51,ลือคำหาญวารินชำราบ,วารินชำราบ,อุบลราชธานี,34190
5813403131,ไม่แยกสาขา,1,10,2558,โควตาพื้นที่บริการ,"คณะวิศวกรรมศาสตร์""",ม.6,1033030027,3.72,3.66,4,3.81,3.57,3.5,3.93,3.96,3.8,บ้านตาอุด,ขุขันธ์,ศรีสะเกษ,33140
5813403954,ไม่แยกสาขา,1,10,2558,โควตาพื้นที่บริการ,"คณะวิศวกรรมศาสตร์""",ม.6,1010490601,3,2.9,2.87,2.77,3.7,3,3.5,3.21,2.85,หว้านใหญ่วิทยา,หว้านใหญ่,มุกดาหาร,49150
5813400990,ไม่แยกสาขา,1,10,2558,โควตาพื้นที่บริการ,"คณะวิศวกรรมศาสตร์""",ม.6,1010480503,2.73,3.4,3.9,1.78,3.8,2.63,3.53,3.25,2.44,อุ่มเหม้าประชาสรรค์,ธาตุพนม,นครพนม,48110
5813400821,ไม่แยกสาขา,1,10,2558,โควตาพื้นที่บริการ,"คณะวิศวกรรมศาสตร์""",ม.6,1010341501,2.66,2.46,3.25,2.38,3.62,2.53,3.62,3.62,2.18,ลือคำหาญวารินชำราบ,วารินชำราบ,อุบลราชธานี,34190
5813400883,ไม่แยกสาขา,1,10,2558,โควตาพื้นที่บริการ,"คณะวิศวกรรมศาสตร์""",ม.6,1010340103,3.67,3.9,3.9,3.83,3.7,3.5,3.58,4,3.53,ปทุมพิทยาคม,เมือง,อุบลราชธานี,34000
5813404784,ไม่แยกสาขา,1,10,2558,โควตาพื้นที่บริการ,"คณะวิศวกรรมศาสตร์""",ม.6,1010370101,2.66,2.3,3.8,2,3.4,2.43,3.65,3.3,2.83,อำนาจเจริญ,เมือง,อำนาจเจริญ,37000
5813401283,ไม่แยกสาขา,1,10,2558,โควตาพื้นที่บริการ,"คณะวิศวกรรมศาสตร์""",ม.6,1011310202,2.89,3.5,4,2.92,3.75,2.44,3.66,3.23,2.56,ตูมใหญ่วิทยา,คูเมือง,บุรีรัมย์,31190
5813404133,ไม่แยกสาขา,1,10,2558,โควตาพื้นที่บริการ,"คณะวิศวกรรมศาสตร์""",ม.6,1010340102,2.57,2.6,3.9,1.82,3.9,2.29,3.73,2.64,2.68,นารีนุกูล,เมือง,อุบลราชธานี,34000
5813404257,ไม่แยกสาขา,1,10,2558,โควตาพื้นที่บริการ,"คณะวิศวกรรมศาสตร์""",ม.6,1010340101,2.03,1.3,2.85,1.82,2.9,1.96,2.86,1.9,1.83,เบ็ญจะมะมหาราช,เมือง,อุบลราชธานี,34000
5813405866,ไม่แยกสาขา,1,10,2558,โควตาพื้นที่บริการ,"คณะวิศวกรรมศาสตร์""",ม.6,1134100032,3.63,3.8,3.95,3.46,3.9,3.64,3.95,3.82,3.2,บ้านพิณโท,ม่วงสามสิบ,อุบลราชธานี,34140
5813405309,ไม่แยกสาขา,1,10,2558,โควตาพื้นที่บริการ,"คณะวิศวกรรมศาสตร์""",ม.6,1011330401,3.26,3.25,3.87,2.47,3.37,3.43,3.5,3.5,3.15,กันทรลักษ์วิทยา,กันทรลักษ์,ศรีสะเกษ,33110
5813404817,ไม่แยกสาขา,1,10,2558,โควตาพื้นที่บริการ,"คณะวิศวกรรมศาสตร์""",ม.6,1010340401,3.77,3.58,3.95,3.9,3.9,3.82,3.93,3.83,3.35,เขื่องในพิทยาคาร,เขื่องใน,อุบลราชธานี,34150
5813400663,ไม่แยกสาขา,1,10,2558,โควตาพื้นที่บริการ,"คณะวิศวกรรมศาสตร์""",ม.6,1010370101,2.75,2.1,3.9,2.33,3.8,2.67,3.45,3.3,2.66,อำนาจเจริญ,เมือง,อำนาจเจริญ,37000
5813405491,ไม่แยกสาขา,1,10,2558,โควตาพื้นที่บริการ,"คณะวิศวกรรมศาสตร์""",ม.6,1010341101,2.06,2.1,3.7,1.5,2,1.71,3.6,2.76,2.05,มัธยมตระการพืชผล,ตระการพืชผล,อุบลราชธานี,34130
5813403982,ไม่แยกสาขา,1,10,2558,โควตาพื้นที่บริการ,"คณะวิศวกรรมศาสตร์""",ม.6,1011331001,2.87,2.53,3.9,2.34,3.1,2.81,3.37,2.76,2.86,กำแพง,อุทมพรพิสัย,ศรีสะเกษ,33120
5813404645,ไม่แยกสาขา,1,10,2558,โควตาพื้นที่บริการ,"คณะวิศวกรรมศาสตร์""",ม.6,1010340104,2.68,3.2,3.66,2.53,3.1,2.45,3.3,2,2.72,เตรียมอุดมศึกษาพัฒนาการอุบลราชธานี,เมือง,อุบลราชธานี,34000
5813405838,ไม่แยกสาขา,1,10,2558,โควตาพื้นที่บริการ,"คณะวิศวกรรมศาสตร์""",ม.6,1134100115,3.29,3.5,4,2.87,3.83,2.97,3.84,2.91,3.92,พรเมตตาคริสเตียน,นาตาล,อุบลราชธานี,34170
5813403704,ไม่แยกสาขา,1,10,2558,โควตาพื้นที่บริการ,"คณะวิศวกรรมศาสตร์""",ม.6,1010340101,2.78,3.04,3.4,1.92,3.2,2.45,3.5,3.4,2.93,เบ็ญจะมะมหาราช,เมือง,อุบลราชธานี,34000
5813401155,ไม่แยกสาขา,1,10,2558,โควตาพื้นที่บริการ,"คณะวิศวกรรมศาสตร์""",ม.6,1010490201,2.91,2.94,3.7,2.57,3.6,2.12,3.61,2.3,2.45,คำสร้อยพิทยาสรรค์,นิคมคำสร้อย,มุกดาหาร,49130
5813402464,ไม่แยกสาขา,1,10,2558,โควตาพื้นที่บริการ,"คณะวิศวกรรมศาสตร์""",ม.6,1011330401,3.72,3.45,3.9,3.8,3.9,3.69,3.57,3.83,3.68,กันทรลักษ์วิทยา,กันทรลักษ์,ศรีสะเกษ,33110
5813403825,ไม่แยกสาขา,1,10,2558,โควตาพื้นที่บริการ,"คณะวิศวกรรมศาสตร์""",ม.6,1010340701,2.79,3.4,3.85,2.33,3.3,2.62,3.17,2.92,2.45,เดชอุดม,เดชอุดม,อุบลราชธานี,34160
5813404804,ไม่แยกสาขา,1,10,2558,โควตาพื้นที่บริการ,"คณะวิศวกรรมศาสตร์""",ม.6,1010341501,3.62,3.16,3.43,3.88,3.62,3.82,4,4,2.92,ลือคำหาญวารินชำราบ,วารินชำราบ,อุบลราชธานี,34190
5813401028,ไม่แยกสาขา,1,10,2558,โควตาพื้นที่บริการ,"คณะวิศวกรรมศาสตร์""",ม.6,1010341501,2.53,2.27,3.31,2.57,2.62,2.4,3,3,2.07,ลือคำหาญวารินชำราบ,วารินชำราบ,อุบลราชธานี,34190
5813404484,ไม่แยกสาขา,1,10,2558,โควตาพื้นที่ภาคอิสาน,"คณะวิศวกรรมศาสตร์""",ม.6,1010460102,3,3,3.75,2.72,3.75,2.7,3.7,3.12,2.92,อนุกูลนารี,เมือง,กาฬสินธุ์,46000
5813402068,ไม่แยกสาขา,1,10,2558,โควตาพื้นที่บริการ,"คณะวิศวกรรมศาสตร์""",ม.6,1010490101,2.29,3,3.3,2.11,2.62,1.93,3.05,2.42,2.54,มุกดาหาร,เมือง,มุกดาหาร,49000
5813403522,ไม่แยกสาขา,1,10,2558,โควตาพื้นที่บริการ,"คณะวิศวกรรมศาสตร์""",ม.6,1011330504,3.75,3.4,3.75,3.88,3.6,3.65,3.87,3.85,3.91,ศรีตระกูลวิทยา,ขุขันธ์,ศรีสะเกษ,33140
5813405359,ไม่แยกสาขา,1,10,2558,โควตาพื้นที่ภาคอิสาน,"คณะวิศวกรรมศาสตร์""",ม.6,1011330406,2.79,3.6,3.4,2.5,3.7,2.42,3.1,3.56,2.83,กระแชงวิทยา,กันทรลักษ์,ศรีสะเกษ,33110
5813403172,ไม่แยกสาขา,1,10,2558,โควตาพื้นที่บริการ,"คณะวิศวกรรมศาสตร์""",ม.6,1134100017,2.72,2.4,3.35,2.68,3.4,2.52,2.81,3.26,2.53,อาเวมารีอา,เมือง,อุบลราชธานี,34000
5813401706,ไม่แยกสาขา,1,10,2558,โควตาพื้นที่บริการ,"คณะวิศวกรรมศาสตร์""",ม.6,1010340103,3.18,3,3.7,3.66,3.2,2.97,3.25,3.35,2.92,ปทุมพิทยาคม,เมือง,อุบลราชธานี,34000
5813404950,ไม่แยกสาขา,1,10,2558,โควตาพื้นที่บริการ,"คณะวิศวกรรมศาสตร์""",ม.6,1011330401,3.73,3.13,3.9,3.74,3.9,3.75,3.5,3.75,3.96,กันทรลักษ์วิทยา,กันทรลักษ์,ศรีสะเกษ,33110
5813402801,ไม่แยกสาขา,1,10,2558,โควตาพื้นที่บริการ,"คณะวิศวกรรมศาสตร์""",ม.6,1010340104,2.87,3.4,3.94,2.8,3.2,2.45,3.42,2.57,3.02,เตรียมอุดมศึกษาพัฒนาการอุบลราชธานี,เมือง,อุบลราชธานี,34000
5813404544,ไม่แยกสาขา,1,10,2558,โควตาพื้นที่บริการ,"คณะวิศวกรรมศาสตร์""",ม.6,1010340104,2.48,2.75,3.68,2.41,2.25,2.1,3.4,2.25,2.45,เตรียมอุดมศึกษาพัฒนาการอุบลราชธานี,เมือง,อุบลราชธานี,34000
5813403058,ไม่แยกสาขา,1,10,2558,โควตาพื้นที่บริการ,"คณะวิศวกรรมศาสตร์""",ม.6,1010342901,2.85,2.8,3.8,2.89,3,2.61,3.41,3.06,2.44,นาเยียศึกษา รัชมังคลาภิเษก,เดชอุดม,อุบลราชธานี,34160
5813401974,ไม่แยกสาขา,1,10,2558,โควตาพื้นที่บริการ,"คณะวิศวกรรมศาสตร์""",ม.6,1010342901,2.83,2.8,3.9,2.93,3,2.47,3.2,3.46,2.42,นาเยียศึกษา รัชมังคลาภิเษก,เดชอุดม,อุบลราชธานี,34160
5813404126,ไม่แยกสาขา,1,10,2558,โควตาพื้นที่บริการ,"คณะวิศวกรรมศาสตร์""",ม.6,1010340102,2.71,3.7,3.8,2.66,3.9,2.74,3.69,3.46,3.22,นารีนุกูล,เมือง,อุบลราชธานี,34000
5813404669,ไม่แยกสาขา,1,10,2558,โควตาพื้นที่บริการ,"คณะวิศวกรรมศาสตร์""",ม.6,1009470801,2.23,2.37,3.8,1.8,2.25,2.17,3.2,2.03,1.67,มัธยมวานรนิวาส,วานรนิวาส,สกลนคร,47120
5813402495,ไม่แยกสาขา,1,10,2558,โควตาพื้นที่บริการ,"คณะวิศวกรรมศาสตร์""",ม.6,1010340101,2.6,2.12,3.87,2.6,3,2.21,2.87,2.8,2.72,เบ็ญจะมะมหาราช,เมือง,อุบลราชธานี,34000
5813400797,ไม่แยกสาขา,1,10,2558,โควตาพื้นที่บริการ,"คณะวิศวกรรมศาสตร์""",ม.6,3034100101,2.27,2.72,3.7,2.19,2.9,1.63,3.25,2.83,2.21,พิบูลมังสาหาร,พิบูลมังสาหาร,อุบลราชธานี,34110
5813403857,ไม่แยกสาขา,1,10,2558,โควตาพื้นที่บริการ,"คณะวิศวกรรมศาสตร์""",ม.6,1010450601,3.51,3.8,4,3.33,3.9,3.3,3.95,3.42,3.81,พนมไพรวิทยาคาร,พนมไพร,ร้อยเอ็ด,45140
5813405582,ไม่แยกสาขา,1,10,2558,โควตาพื้นที่บริการ,"คณะวิศวกรรมศาสตร์""",ม.6,3034100112,2.95,2.3,3.95,2.78,3.9,2.78,3,3.05,3,นาสะไมพิทยาคม,ตระการพืชผล,อุบลราชธานี,34130
5813401560,ไม่แยกสาขา,1,10,2558,โควตาพื้นที่บริการ,"คณะวิศวกรรมศาสตร์""",ม.6,1011331201,3.51,3.8,3.95,3.33,3.5,3.31,3.9,3.63,3.7,ห้วยทับทันวิทยาคม,ห้วยทับทัน,ศรีสะเกษ,33210
5813401494,ไม่แยกสาขา,1,10,2558,โควตาพื้นที่บริการ,"คณะวิศวกรรมศาสตร์""",ม.6,1010340102,2.14,2.4,3.5,1.74,3.64,1.81,3.45,2.28,1.61,นารีนุกูล,เมือง,อุบลราชธานี,34000
5813402174,ไม่แยกสาขา,1,10,2558,โควตาพื้นที่บริการ,"คณะวิศวกรรมศาสตร์""",ม.6,1010370101,3.03,3,3.25,2.81,3.37,2.9,3.37,3.65,3,อำนาจเจริญ,เมือง,อำนาจเจริญ,37000
5813402214,ไม่แยกสาขา,1,10,2558,โควตาพื้นที่บริการ,"คณะวิศวกรรมศาสตร์""",ม.6,1010340102,2.14,2.9,3.9,1.58,2.8,1.69,2.42,2.46,2.35,นารีนุกูล,เมือง,อุบลราชธานี,34000
5813405224,ไม่แยกสาขา,1,10,2558,โควตาพื้นที่บริการ,"คณะวิศวกรรมศาสตร์""",ม.6,1010451002,3.75,3.2,4,3.86,3.5,3.79,3.66,3.92,3.63,ขวาววิทยาคาร,เสลภูมิ,ร้อยเอ็ด,45120
5813402524,ไม่แยกสาขา,1,10,0,โควตาพื้นที่ภาคอิสาน,"คณะวิศวกรรมศาสตร์""",ม.6,1010370401,3.24,3.87,4,3.03,3.25,3.15,3.87,3.42,2.61,พนาศึกษา,พนา,อำนาจเจริญ,37180
5813404832,ไม่แยกสาขา,1,10,2558,โควตาพื้นที่บริการ,"คณะวิศวกรรมศาสตร์""",ม.6,1010340101,2.26,2.4,3.7,1.5,3.1,1.93,3.23,2.71,2,เบ็ญจะมะมหาราช,เมือง,อุบลราชธานี,34000
5813401122,ไม่แยกสาขา,1,10,2558,โควตาพื้นที่บริการ,"คณะวิศวกรรมศาสตร์""",ม.6,1010490302,3.99,4,4,3.95,4,4,4,4,4,โพธิ์ไทรวิทยา,ดอนตาล,มุกดาหาร,49120
5813402865,ไม่แยกสาขา,1,10,2558,โควตาพื้นที่บริการ,"คณะวิศวกรรมศาสตร์""",ม.6,1010490201,3.25,3.33,4,3.07,4,2.62,3.64,2.9,2.9,คำสร้อยพิทยาสรรค์,นิคมคำสร้อย,มุกดาหาร,49130
5813401426,ไม่แยกสาขา,1,10,2558,โควตาพื้นที่บริการ,"คณะวิศวกรรมศาสตร์""",ม.6,1010340101,2.5,2.5,3.35,2.07,2.7,2.28,3.16,2.84,2.26,เบ็ญจะมะมหาราช,เมือง,อุบลราชธานี,34000
5813401331,ไม่แยกสาขา,1,10,2558,โควตาพื้นที่บริการ,"คณะวิศวกรรมศาสตร์""",ปวช.,1334016101,3.58,4,3,4,0,4,3.66,1.5,3.92,วิทยาลัยเทคนิคอุบลราชธานี,เมือง,อุบลราชธานี,34000
5813402942,ไม่แยกสาขา,1,10,2558,โควตาพื้นที่บริการ,"คณะวิศวกรรมศาสตร์""",ม.6,1010370401,2.54,2.68,3.75,2.56,3.1,2.14,3.16,2.92,1.71,พนาศึกษา,พนา,อำนาจเจริญ,37180
5813405908,ไม่แยกสาขา,1,10,2558,โควตาพื้นที่บริการ,"คณะวิศวกรรมศาสตร์""",ม.6,1010340102,3.23,3.4,4,2.86,4,3.03,3.69,3.07,3.43,นารีนุกูล,เมือง,อุบลราชธานี,34000
5813403937,ไม่แยกสาขา,1,10,2558,โควตาพื้นที่บริการ,"คณะวิศวกรรมศาสตร์""",ม.6,3034100109,2.91,2.4,3.8,2.22,3.5,3.12,3.3,3.23,2.69,น้ำขุ่นวิทยา,น้ำยืน,อุบลราชธานี,34260
5813404022,ไม่แยกสาขา,1,10,2558,โควตาพื้นที่บริการ,"คณะวิศวกรรมศาสตร์""",ม.6,1010340101,2.83,2.9,3.95,2.1,3.3,2.33,3.96,3.46,2.85,เบ็ญจะมะมหาราช,เมือง,อุบลราชธานี,34000
5813402643,ไม่แยกสาขา,1,10,2558,โควตาพื้นที่บริการ,"คณะวิศวกรรมศาสตร์""",ม.6,1010340102,2.9,3.5,4,2.22,4,2.7,3.42,3.21,2.93,นารีนุกูล,เมือง,อุบลราชธานี,34000
5813404477,ไม่แยกสาขา,1,10,2558,โควตาพื้นที่บริการ,"คณะวิศวกรรมศาสตร์""",ม.6,1010490110,3.58,3.7,4,3.48,3.9,3.51,3.75,3.76,3.43,ดงมอนวิทยาคม,เมือง,มุกดาหาร,49000
5813404714,ไม่แยกสาขา,1,10,2558,โควตาพื้นที่บริการ,"คณะวิศวกรรมศาสตร์""",ม.6,1010341201,3.63,3.7,3.5,3.65,4,3.43,3.94,3.82,3.8,กุดข้าวปุ้นวิทยา,กุดข้าวปุ้น,อุบลราชธานี,34270
5813400678,ไม่แยกสาขา,1,10,2558,โควตาพื้นที่ภาคอิสาน,"คณะวิศวกรรมศาสตร์""",ม.6,3046100111,2.93,2.7,3.95,2.56,3.9,2.86,3.57,3.03,2.62,บัวขาว,กุฉินารายณ์,กาฬสินธุ์,46110
5813404351,ไม่แยกสาขา,1,10,2558,โควตาพื้นที่บริการ,"คณะวิศวกรรมศาสตร์""",ม.6,1010370301,2.99,3.2,4,2.64,4,2.66,3.64,3.33,2.85,ปทุมราชวงศา,ปทุมราชวงศา,อำนาจเจริญ,37110
5813402709,ไม่แยกสาขา,1,10,2558,โควตาพื้นที่บริการ,"คณะวิศวกรรมศาสตร์""",ม.6,1010340102,2.7,2.7,3.9,2.28,4,2.5,3.8,2.32,2.54,นารีนุกูล,เมือง,อุบลราชธานี,34000
5813404539,ไม่แยกสาขา,1,10,2558,โควตาพื้นที่บริการ,"คณะวิศวกรรมศาสตร์""",ม.6,1010340101,2.64,2.5,3.45,2.36,2.9,2.44,3.5,3,2.12,เบ็ญจะมะมหาราช,เมือง,อุบลราชธานี,34000
5813403603,ไม่แยกสาขา,1,10,2558,โควตาพื้นที่บริการ,"คณะวิศวกรรมศาสตร์""",ม.6,1010341101,2.84,3,3.12,2.45,3,2.6,3.6,3.03,3.04,มัธยมตระการพืชผล,ตระการพืชผล,อุบลราชธานี,34130
5813402812,ไม่แยกสาขา,1,10,2558,โควตาพื้นที่บริการ,"คณะวิศวกรรมศาสตร์""",ม.6,1010340102,2.31,2.7,3.8,1.98,3.6,2,2.63,2.96,1.95,นารีนุกูล,เมือง,อุบลราชธานี,34000
5813404979,ไม่แยกสาขา,1,10,2558,โควตาพื้นที่บริการ,"คณะวิศวกรรมศาสตร์""",ม.6,1011321701,3.34,3.5,3.7,3.51,3.7,3.27,3.76,3.16,2.83,นารายณ์คำผงวิทยา,รัตนบุรี,สุรินทร์,32130
5813403296,ไม่แยกสาขา,1,10,2558,โควตาพื้นที่บริการ,"คณะวิศวกรรมศาสตร์""",ม.6,1010340102,2.26,1.85,3.4,1.4,3.92,2.27,3.54,2.7,1.7,นารีนุกูล,เมือง,อุบลราชธานี,34000
5813405282,ไม่แยกสาขา,1,10,2558,โควตาพื้นที่บริการ,"คณะวิศวกรรมศาสตร์""",ม.6,1010370401,3,3.31,3.9,2.96,3.7,2.5,3.66,3.17,2.81,พนาศึกษา,พนา,อำนาจเจริญ,37180
5813404472,ไม่แยกสาขา,1,10,2558,โควตาพื้นที่บริการ,"คณะวิศวกรรมศาสตร์""",ม.6,3045200107,3,3.12,3.87,2.66,4,2.98,3.75,2.95,2.85,เทศบาลวัดสระทอง,เมือง,ร้อยเอ็ด,45000
5813405024,ไม่แยกสาขา,1,10,2558,โควตาพื้นที่บริการ,"คณะวิศวกรรมศาสตร์""",ม.6,1011321701,3.38,3.75,3.4,3.57,3.8,3.5,3.29,3.27,2.69,นารายณ์คำผงวิทยา,รัตนบุรี,สุรินทร์,32130
5813404189,ไม่แยกสาขา,1,10,2558,โควตาพื้นที่บริการ,"คณะวิศวกรรมศาสตร์""",ม.6,1010341903,3.96,4,4,4,4,3.91,4,4,3.95,อ่างศิลา,พิบูลมังสาหาร,อุบลราชธานี,34110
5813403875,ไม่แยกสาขา,1,10,2558,โควตาพื้นที่บริการ,"คณะวิศวกรรมศาสตร์""",ม.6,1011330102,3.55,3.8,4,3.26,3.8,3.53,3.66,3.33,3.59,สตรีสิริเกศ,เมือง,ศรีสะเกษ,33000
5813400685,ไม่แยกสาขา,1,10,2558,โควตาพื้นที่บริการ,"คณะวิศวกรรมศาสตร์""",ม.6,1010341501,2.98,2.19,3,3.34,3.1,2.88,3.38,3.1,2.86,ลือคำหาญวารินชำราบ,วารินชำราบ,อุบลราชธานี,34190
5813401563,ไม่แยกสาขา,1,10,2558,โควตาพื้นที่บริการ,"คณะวิศวกรรมศาสตร์""",ม.6,1011330904,3.8,3.7,3.9,3.95,3.8,3.84,3.76,3.5,3.89,ไผ่งามพิทยาคม,ราษีไศล,ศรีสะเกษ,33160
5813401366,ไม่แยกสาขา,1,10,2558,โควตาพื้นที่บริการ,"คณะวิศวกรรมศาสตร์""",ม.6,1010340101,3.04,3.1,3.95,2.48,3.7,2.64,3.84,3.62,2.96,เบ็ญจะมะมหาราช,เมือง,อุบลราชธานี,34000
5813404407,ไม่แยกสาขา,1,10,2558,โควตาพื้นที่บริการ,"คณะวิศวกรรมศาสตร์""",ม.6,1045100020,2.9,3.18,3.5,2.78,3.94,2.4,3.8,3.38,2.4,ศรีอรุณวิทย์เสลภูมิ,เสลภูมิ,ร้อยเอ็ด,45120
5813405888,ไม่แยกสาขา,1,10,2558,โควตาพื้นที่บริการ,"คณะวิศวกรรมศาสตร์""",ม.6,1010451103,3.13,3.7,4,3.25,3.4,2.9,3.2,3.3,2.86,สุวรรณภูมิ,สุวรรณภูมิ,ร้อยเอ็ด,45130
5813404312,ไม่แยกสาขา,1,10,2558,โควตาพื้นที่ภาคอิสาน,"คณะวิศวกรรมศาสตร์""",ม.6,1010460106,3.79,3.9,4,3.95,4,3.67,3.73,3.92,3.4,แก่งนาจารย์พิทยาคม,เมือง,กาฬสินธุ์,46000
5813404315,ไม่แยกสาขา,1,10,2558,โควตาพื้นที่บริการ,"คณะวิศวกรรมศาสตร์""",ม.6,1011321701,3.2,3.25,3.7,3.07,3.8,3.02,3.79,3.15,3.07,นารายณ์คำผงวิทยา,รัตนบุรี,สุรินทร์,32130
5813405771,ไม่แยกสาขา,1,10,2558,โควตาพื้นที่บริการ,"คณะวิศวกรรมศาสตร์""",ม.6,1011310405,3.48,3.9,3.8,3.33,4,3.56,3.96,3.25,2.75,พิมพ์รัฐประชาสรรค์,นางรอง,บุรีรัมย์,31110
5813401213,ไม่แยกสาขา,1,10,2558,โควตาพื้นที่บริการ,"คณะวิศวกรรมศาสตร์""",ปวช.,1337016101,2.54,2.5,2.5,1.5,0,1,2.55,3,2.9,วิทยาลัยเทคนิคอำนาจเจริญ,เมือง,อำนาจเจริญ,37000
5813403346,ไม่แยกสาขา,1,10,2558,โควตาพื้นที่บริการ,"คณะวิศวกรรมศาสตร์""",ม.6,3034100101,2.42,2.63,3.25,1.96,2.9,2.12,2.87,3,2.64,พิบูลมังสาหาร,พิบูลมังสาหาร,อุบลราชธานี,34110
5813405598,ไม่แยกสาขา,1,10,2558,โควตาพื้นที่บริการ,"คณะวิศวกรรมศาสตร์""",ม.6,1010350104,3.55,3.16,3.91,3.6,4,3.44,3.75,3.9,3.4,สิงห์สามัคคีวิทยา,เมือง,ยโสธร,35000
5813401686,ไม่แยกสาขา,1,10,2558,โควตาพื้นที่บริการ,"คณะวิศวกรรมศาสตร์""",ม.6,1011321401,2.44,2.75,3.5,2.01,3.9,2.38,2.9,2.76,2.06,พนมดงรักวิทยา,ปราสาท,สุรินทร์,32140
5813402689,ไม่แยกสาขา,1,10,2558,โควตาพื้นที่บริการ,"คณะวิศวกรรมศาสตร์""",ม.6,1010341001,3.28,3.4,3.9,3.02,3.7,3.14,4,3.39,3.14,บุณฑริกวิทยาคาร,บุณฑริก,อุบลราชธานี,34230
5813400788,ไม่แยกสาขา,1,10,2558,โควตาพื้นที่บริการ,"คณะวิศวกรรมศาสตร์""",ม.6,3035200101,3.66,3.67,4,3.07,3.4,4,3.78,3.39,3.67,เทศบาล 1 สุขวิทยากรตั้งตรงจิตร 15,เมือง,ยโสธร,35000
5813404108,ไม่แยกสาขา,1,10,2558,โควตาพื้นที่บริการ,"คณะวิศวกรรมศาสตร์""",ม.6,3035200101,3.32,2.92,4,2.53,2.9,3.75,3.5,3.18,3.31,เทศบาล 1 สุขวิทยากรตั้งตรงจิตร 15,เมือง,ยโสธร,35000
5813403103,ไม่แยกสาขา,1,10,2558,โควตาพื้นที่บริการ,"คณะวิศวกรรมศาสตร์""",ม.6,1034010923,3.37,3.8,3.3,3.08,3.1,3,3.7,3.6,3.77,ศรีศาสนวิทยา วัดด้ามพร้า,เมือง,อุบลราชธานี,34000
5813405634,ไม่แยกสาขา,1,10,2558,โควตาพื้นที่บริการ,"คณะวิศวกรรมศาสตร์""",ม.6,3034100101,2.59,2.86,3.6,1.77,3.2,2.15,3.5,2.7,3.27,พิบูลมังสาหาร,พิบูลมังสาหาร,อุบลราชธานี,34110
5813404493,ไม่แยกสาขา,1,10,2558,โควตาพื้นที่บริการ,"คณะวิศวกรรมศาสตร์""",ม.6,1010340102,2.61,3.1,3.7,2.12,4,2.29,3.65,2.71,2.36,นารีนุกูล,เมือง,อุบลราชธานี,34000
5813400577,ไม่แยกสาขา,1,10,2558,โควตาพื้นที่บริการ,"คณะวิศวกรรมศาสตร์""",ม.6,3035200101,2.85,2.92,4,1.97,3.14,2.85,2.94,3.14,3.19,เทศบาล 1 สุขวิทยากรตั้งตรงจิตร 15,เมือง,ยโสธร,35000
5813403357,ไม่แยกสาขา,1,10,2558,โควตาพื้นที่ภาคอิสาน,"คณะวิศวกรรมศาสตร์""",ม.6,1010460101,3.11,3,3.81,3.5,4,2.73,3.56,3.7,2.56,กาฬสินธุ์พิทยาสรรพ์,เมือง,กาฬสินธุ์,46000
5813405554,ไม่แยกสาขา,1,10,2558,โควตาพื้นที่บริการ,"คณะวิศวกรรมศาสตร์""",ม.6,1010370103,3.74,3.61,3.81,4,3.9,3.56,3.92,3.92,3.66,ปลาค้าววิทยานุสรณ์,เมือง,อำนาจเจริญ,37000
5813400705,ไม่แยกสาขา,1,10,2558,โควตาพื้นที่บริการ,"คณะวิศวกรรมศาสตร์""",ม.6,1010340104,3.44,3.6,4,3.73,3.8,3.14,3.96,3.21,3.22,เตรียมอุดมศึกษาพัฒนาการอุบลราชธานี,เมือง,อุบลราชธานี,34000
5813403071,ไม่แยกสาขา,1,10,2558,โควตาพื้นที่บริการ,"คณะวิศวกรรมศาสตร์""",ม.6,1010450101,2.8,2.6,3.9,2.8,2.3,2.35,3.21,3.28,2.87,ร้อยเอ็ดวิทยาลัย,เมือง,ร้อยเอ็ด,45000
5813404777,ไม่แยกสาขา,1,10,2558,โควตาพื้นที่บริการ,"คณะวิศวกรรมศาสตร์""",ม.6,1010370106,3.27,3.57,4,3.15,4,3.16,3.36,3.58,2.7,นาจิกพิทยาคม,เมือง,อำนาจเจริญ,37000
5813404270,ไม่แยกสาขา,1,10,2558,โควตาพื้นที่บริการ,"คณะวิศวกรรมศาสตร์""",ม.6,1010350801,3.75,3.9,3.75,3.7,4,3.71,3.85,3.85,3.58,เลิงนกทา,เลิงนกทา,ยโสธร,35120
5813404052,ไม่แยกสาขา,1,10,2558,โควตาพื้นที่บริการ,"คณะวิศวกรรมศาสตร์""",ม.6,1010340405,3.15,3.2,3.75,2.95,3.3,3.08,3.57,3.25,2.33,บ้านไทยวิทยาคม,เขื่องใน,อุบลราชธานี,34320
5813405150,ไม่แยกสาขา,1,10,2558,โควตาพื้นที่บริการ,"คณะวิศวกรรมศาสตร์""",ม.6,1010350402,2.94,2.5,3.4,2.7,2.9,2.91,2.79,3.45,2.84,สมเด็จพระญาณสังวร,คำเขื่อนแก้ว,ยโสธร,35180
5813404227,ไม่แยกสาขา,1,10,2558,โควตาพื้นที่บริการ,"คณะวิศวกรรมศาสตร์""",ม.6,1010490601,2.71,2.9,3.43,2.04,3.8,2.53,3.62,3.1,2.75,หว้านใหญ่วิทยา,หว้านใหญ่,มุกดาหาร,49150
5813401408,ไม่แยกสาขา,1,10,2558,โควตาพื้นที่บริการ,"คณะวิศวกรรมศาสตร์""",ม.6,1010340101,2.76,3,3.85,2.12,3.3,2.27,3.65,3.4,2.84,เบ็ญจะมะมหาราช,เมือง,อุบลราชธานี,34000
5813400955,ไม่แยกสาขา,1,10,2558,โควตาพื้นที่บริการ,"คณะวิศวกรรมศาสตร์""",ม.6,1010340102,2.46,2.6,3.9,1.94,3.4,2.21,3.57,2.42,2.36,นารีนุกูล,เมือง,อุบลราชธานี,34000
5813400858,ไม่แยกสาขา,1,10,2558,โควตาพื้นที่บริการ,"คณะวิศวกรรมศาสตร์""",ม.6,3035200101,3.89,3.83,4,3.77,3.8,4,3.94,3.57,4,เทศบาล 1 สุขวิทยากรตั้งตรงจิตร 15,เมือง,ยโสธร,35000
5813405179,ไม่แยกสาขา,1,10,2558,โควตาพื้นที่บริการ,"คณะวิศวกรรมศาสตร์""",ม.6,1010340102,2.31,2.04,3.8,1.54,4,2.04,3.34,2.42,2.05,นารีนุกูล,เมือง,อุบลราชธานี,34000
5813400740,ไม่แยกสาขา,1,10,2558,โควตาพื้นที่บริการ,"คณะวิศวกรรมศาสตร์""",ม.6,1011330102,3.88,4,3.87,4,3.8,3.85,3.96,3.75,3.81,สตรีสิริเกศ,เมือง,ศรีสะเกษ,33000
5813402984,ไม่แยกสาขา,1,10,2558,โควตาพื้นที่บริการ,"คณะวิศวกรรมศาสตร์""",ม.6,1010340101,2.89,2.9,3.7,2.71,3.3,2.55,3.7,3.09,2.64,เบ็ญจะมะมหาราช,เมือง,อุบลราชธานี,34000
5813401743,ไม่แยกสาขา,1,10,2558,โควตาพื้นที่บริการ,"คณะวิศวกรรมศาสตร์""",ม.6,1010370104,3.89,3.7,4,3.82,4,3.96,4,4,3.72,น้ำปลีกศึกษา,เมือง,อำนาจเจริญ,37000
5813405728,ไม่แยกสาขา,1,10,2558,โควตาพื้นที่บริการ,"คณะวิศวกรรมศาสตร์""",ม.6,1011320903,3.61,3.9,3.95,3.41,4,3.59,3.93,3.4,3.45,ห้วยจริงวิทยา,ศีขรภูมิ,สุรินทร์,32110
5813405439,ไม่แยกสาขา,1,10,2558,โควตาพื้นที่บริการ,"คณะวิศวกรรมศาสตร์""",ม.6,1011320401,3.08,3.5,3.9,3.46,3.6,2.51,4,2.9,3.33,จอมพระประชาสรรค์,จอมพระ,สุรินทร์,32180
5813404182,ไม่แยกสาขา,1,10,2558,โควตาพื้นที่บริการ,"คณะวิศวกรรมศาสตร์""",ม.6,1010350601,2.68,2.5,3.6,2.28,3.1,2.39,3.2,3.28,2.5,มหาชนะชัยวิทยาคม,มหาชนะชัย,ยโสธร,35130
5813406674,ไม่แยกสาขา,3,10,2558,โควตาพื้นที่บริการ,"คณะวิศวกรรมศาสตร์""",ม.6,1010340101,2.89,1.91,3.21,2.81,2.3,3.02,3.67,2.96,2.3,เบ็ญจะมะมหาราช,เมือง,อุบลราชธานี,34000
5813406084,ไม่แยกสาขา,3,10,2558,โควตาพื้นที่บริการ,"คณะวิศวกรรมศาสตร์""",ม.6,3034100101,3.08,3.77,3.8,3,3.5,2.52,3.37,3.4,3.45,พิบูลมังสาหาร,พิบูลมังสาหาร,อุบลราชธานี,34110
5813406117,ไม่แยกสาขา,3,10,2558,โควตาพื้นที่บริการ,"คณะวิศวกรรมศาสตร์""",ปวช.,1334016101,2.98,2.5,3,2.5,0,3,3.46,3,2.78,วิทยาลัยเทคนิคอุบลราชธานี,เมือง,อุบลราชธานี,34000
5813404425,ไม่แยกสาขา,1,10,2558,โควตาพื้นที่บริการ,"คณะวิศวกรรมศาสตร์""",ม.6,1010340104,3.01,3.5,3.77,3.28,3.3,2.53,3.41,3.46,2.7,เตรียมอุดมศึกษาพัฒนาการอุบลราชธานี,เมือง,อุบลราชธานี,34000
5813402200,ไม่แยกสาขา,1,10,2558,โควตาพื้นที่บริการ,"คณะวิศวกรรมศาสตร์""",ม.6,3034100101,2.93,2.81,3.85,2.51,3.5,2.75,3.37,3.33,3.04,พิบูลมังสาหาร,พิบูลมังสาหาร,อุบลราชธานี,34110
5813404362,ไม่แยกสาขา,1,10,2558,โควตาพื้นที่บริการ,"คณะวิศวกรรมศาสตร์""",ม.6,3034100101,3.44,3.22,3.8,3.67,3.9,3.23,3.75,3.3,3.42,พิบูลมังสาหาร,พิบูลมังสาหาร,อุบลราชธานี,34110
5813403693,ไม่แยกสาขา,1,10,2558,โควตาพื้นที่บริการ,"คณะวิศวกรรมศาสตร์""",ม.6,3034100101,3.08,3.18,3.9,3.19,3.6,2.6,3.5,3.23,3.3,พิบูลมังสาหาร,พิบูลมังสาหาร,อุบลราชธานี,34110
5813404748,ไม่แยกสาขา,1,10,2558,โควตาพื้นที่บริการ,"คณะวิศวกรรมศาสตร์""",ม.6,1010370101,2.76,2.6,3.7,1.88,3.5,2.91,3.25,2.63,2.88,อำนาจเจริญ,เมือง,อำนาจเจริญ,37000
5813404898,ไม่แยกสาขา,1,10,2558,โควตาพื้นที่บริการ,"คณะวิศวกรรมศาสตร์""",ม.6,1010450101,3.52,3.8,3.95,3.25,3.8,3.3,3.91,3.78,3.83,ร้อยเอ็ดวิทยาลัย,เมือง,ร้อยเอ็ด,45000
5813403780,ไม่แยกสาขา,1,10,2558,โควตาพื้นที่บริการ,"คณะวิศวกรรมศาสตร์""",ม.6,1011310101,2.59,2.91,3.65,2.2,3.2,1.98,3.75,2.53,2.98,บุรีรัมย์พิทยาคม,เมือง,บุรีรัมย์,31000
5813400766,ไม่แยกสาขา,1,10,2558,โควตาพื้นที่บริการ,"คณะวิศวกรรมศาสตร์""",ม.6,1010341501,3.23,2.88,3.85,3.2,3.7,2.8,3.62,3.7,3.37,ลือคำหาญวารินชำราบ,วารินชำราบ,อุบลราชธานี,34190
5813402191,ไม่แยกสาขา,1,10,2558,โควตาพื้นที่ภาคอิสาน,"คณะวิศวกรรมศาสตร์""",ม.6,1011361201,3.87,3.9,4,3.77,4,3.9,4,3.82,3.8,แก้งคร้อวิทยา,แก้งคร้อ,ชัยภูมิ,36150
5813403659,ไม่แยกสาขา,1,10,2558,โควตาพื้นที่บริการ,"คณะวิศวกรรมศาสตร์""",ม.6,1010350401,3.43,2.8,3.75,3.7,4,3.29,4,3.71,3.05,คำเขื่อนแก้วชนูปถัมภ์,คำเขื่อนแก้ว,ยโสธร,35110
5813405921,ไม่แยกสาขา,1,10,2558,โควตาพื้นที่บริการ,"คณะวิศวกรรมศาสตร์""",ม.6,3034100109,2.31,2.2,3.3,2,2.1,2.57,2.8,2.15,1.46,น้ำขุ่นวิทยา,น้ำยืน,อุบลราชธานี,34260
5813402925,ไม่แยกสาขา,1,10,2558,โควตาพื้นที่บริการ,"คณะวิศวกรรมศาสตร์""",ม.6,1010340201,2.75,3.2,3.4,2.23,3.1,2.42,3.19,3.32,2.87,ศรีเมืองวิทยาคาร,ศรีเมืองใหม่,อุบลราชธานี,34250
5813404246,ไม่แยกสาขา,1,10,2558,โควตาพื้นที่บริการ,"คณะวิศวกรรมศาสตร์""",ม.6,1010340102,2.38,2.6,3.9,2.3,3.71,2.01,3.5,2.14,1.9,นารีนุกูล,เมือง,อุบลราชธานี,34000
5813401082,ไม่แยกสาขา,1,10,2558,โควตาพื้นที่บริการ,"คณะวิศวกรรมศาสตร์""",ม.6,1010340701,3.19,3.2,3.75,3.44,3.8,3.28,3.64,2.88,1.98,เดชอุดม,เดชอุดม,อุบลราชธานี,34160
5813405644,ไม่แยกสาขา,1,10,2558,โควตาพื้นที่บริการ,"คณะวิศวกรรมศาสตร์""",ม.6,1010370101,3.19,3.1,4,2.77,3.9,3,3.9,3.76,3.05,อำนาจเจริญ,เมือง,อำนาจเจริญ,37000
5813405713,ไม่แยกสาขา,1,10,2558,โควตาพื้นที่บริการ,"คณะวิศวกรรมศาสตร์""",ม.6,1010341501,3.1,3.5,3.6,3.48,3.7,2.73,3.87,3.23,2.65,ลือคำหาญวารินชำราบ,วารินชำราบ,อุบลราชธานี,34190
5813404121,ไม่แยกสาขา,1,10,2558,โควตาพื้นที่บริการ,"คณะวิศวกรรมศาสตร์""",ม.6,1010340401,3.69,3.75,3.9,3.5,3.85,3.64,3.8,3.77,3.67,เขื่องในพิทยาคาร,เขื่องใน,อุบลราชธานี,34150
5813404066,ไม่แยกสาขา,1,10,2558,โควตาพื้นที่บริการ,"คณะวิศวกรรมศาสตร์""",ม.6,1010340102,2.59,2.6,3.8,3.56,3.4,2.28,3.11,2.57,2.52,นารีนุกูล,เมือง,อุบลราชธานี,34000
5813402236,ไม่แยกสาขา,1,10,2558,โควตาพื้นที่บริการ,"คณะวิศวกรรมศาสตร์""",ม.6,1010340101,2.49,2.37,3.6,1.7,2.6,2.37,3.3,2.68,2.58,เบ็ญจะมะมหาราช,เมือง,อุบลราชธานี,34000
5813401917,ไม่แยกสาขา,1,10,2558,โควตาพื้นที่ภาคอิสาน,"คณะวิศวกรรมศาสตร์""",ม.6,1010440901,3.44,3.4,3.91,3.16,4,3.02,3.83,3.93,3.66,วาปีปทุม,วาปีปทุม,มหาสารคาม,44120
5813403262,ไม่แยกสาขา,1,10,2558,โควตาพื้นที่บริการ,"คณะวิศวกรรมศาสตร์""",ม.6,1010340102,2.72,2.2,3.6,2.92,4,2.37,3.46,2.82,2.66,นารีนุกูล,เมือง,อุบลราชธานี,34000
5813405006,ไม่แยกสาขา,1,10,2558,โควตาพื้นที่บริการ,"คณะวิศวกรรมศาสตร์""",ม.6,1010350301,3,3.8,3.65,3,3.4,2.93,3.45,2.89,2.06,กุดชุมวิทยาคม,กุดชุม,ยโสธร,35140
5813402434,ไม่แยกสาขา,1,10,2558,โควตาพื้นที่บริการ,"คณะวิศวกรรมศาสตร์""",ม.6,1033030027,2.85,3.13,3.33,2.81,3,2.43,3.62,3.03,2.8,บ้านตาอุด,ขุขันธ์,ศรีสะเกษ,33140
5813402422,ไม่แยกสาขา,1,10,2558,โควตาพื้นที่บริการ,"คณะวิศวกรรมศาสตร์""",ม.6,1011330201,3.22,3.1,3.66,3.3,3.3,2.95,3.36,3.53,3.4,ยางชุมน้อยพิทยาคม,ยางชุมน้อย,ศรีสะเกษ,33190
5813402519,ไม่แยกสาขา,1,10,2558,โควตาพื้นที่บริการ,"คณะวิศวกรรมศาสตร์""",ม.6,1011320113,2.3,2.9,3.8,1.61,3.4,2.05,3.08,2.34,2.38,วีรวัฒน์โยธิน,เมือง,สุรินทร์,32000
5813405529,ไม่แยกสาขา,1,10,2558,โควตาพื้นที่บริการ,"คณะวิศวกรรมศาสตร์""",ม.6,3033100131,2.93,2.9,3.58,3.14,3.35,2.59,3.66,3.33,2.55,ไพรธรรมคุณวิทยา,ขุนหาญ,ศรีสะเกษ,33150
5813405404,ไม่แยกสาขา,1,10,2558,โควตาพื้นที่บริการ,"คณะวิศวกรรมศาสตร์""",ม.6,1010340101,3.15,2.8,3.35,3.61,3.2,3.01,3.58,3.12,2.75,เบ็ญจะมะมหาราช,เมือง,อุบลราชธานี,34000
5813402581,ไม่แยกสาขา,1,10,2558,โควตาพื้นที่บริการ,"คณะวิศวกรรมศาสตร์""",ม.6,1011330201,2.46,2.4,3.61,2.4,3.7,2.04,3.03,3.1,1.97,ยางชุมน้อยพิทยาคม,ยางชุมน้อย,ศรีสะเกษ,33190
5813401199,ไม่แยกสาขา,1,10,2558,โควตาพื้นที่บริการ,"คณะวิศวกรรมศาสตร์""",ม.6,1010350401,2.69,2.4,3.5,2,3.7,2.55,3.71,3.32,2.45,คำเขื่อนแก้วชนูปถัมภ์,คำเขื่อนแก้ว,ยโสธร,35110
5813401338,ไม่แยกสาขา,1,10,2558,โควตาพื้นที่บริการ,"คณะวิศวกรรมศาสตร์""",ม.6,1010370104,2.48,2.7,3.6,2.2,2.9,2.29,2.5,2.6,2.72,น้ำปลีกศึกษา,เมือง,อำนาจเจริญ,37000
5813400753,ไม่แยกสาขา,1,10,2558,โควตาพื้นที่บริการ,"คณะวิศวกรรมศาสตร์""",ม.6,3033100137,3.31,3.18,3.6,3.44,4,2.81,3.89,3.97,3.57,ราษีไศล,ราษีไศล,ศรีสะเกษ,33160
5813405668,ไม่แยกสาขา,1,10,2558,โควตาพื้นที่บริการ,"คณะวิศวกรรมศาสตร์""",ม.6,1010341501,2.87,3,3.85,2.77,3.9,2.72,3,3.76,2.28,ลือคำหาญวารินชำราบ,วารินชำราบ,อุบลราชธานี,34190
5813405816,ไม่แยกสาขา,1,10,2558,โควตาพื้นที่บริการ,"คณะวิศวกรรมศาสตร์""",ม.6,1011330202,3.15,3.8,3.93,2.33,3.58,2.82,3.93,3.67,3.23,ลิ้นฟ้าพิทยาคม,ยางชุมน้อย,ศรีสะเกษ,33190
5813402389,ไม่แยกสาขา,1,10,2558,โควตาพื้นที่ภาคอิสาน,"คณะวิศวกรรมศาสตร์""",ม.6,3046100111,2.74,2.8,3.7,2.2,4,2.66,3.78,2.96,2.18,บัวขาว,กุฉินารายณ์,กาฬสินธุ์,46110
5813401605,ไม่แยกสาขา,1,10,2558,โควตาพื้นที่บริการ,"คณะวิศวกรรมศาสตร์""",ม.6,1011320101,3.35,3.2,3.92,3.19,3.8,3.33,3.42,3.33,3.32,สุรวิทยาคาร,เมือง,สุรินทร์,32000
5813402450,ไม่แยกสาขา,1,10,2558,โควตาพื้นที่บริการ,"คณะวิศวกรรมศาสตร์""",ม.6,1010341503,2.94,1.96,2.95,3,3.7,3.32,3.11,2.07,3.25,วารินชำราบ,วารินชำราบ,อุบลราชธานี,34190
5813403943,ไม่แยกสาขา,1,10,2558,โควตาพื้นที่บริการ,"คณะวิศวกรรมศาสตร์""",ม.6,1010340102,2.5,3.4,3.7,2.34,3.4,1.87,3.73,2.75,2.75,นารีนุกูล,เมือง,อุบลราชธานี,34000
5813405105,ไม่แยกสาขา,1,10,2558,โควตาพื้นที่บริการ,"คณะวิศวกรรมศาสตร์""",ม.6,1010341503,3.04,2.6,3.5,2.62,2.8,3.41,3.44,2.73,2.7,วารินชำราบ,วารินชำราบ,อุบลราชธานี,34190
5813401945,ไม่แยกสาขา,1,10,2558,โควตาพื้นที่บริการ,"คณะวิศวกรรมศาสตร์""",ม.6,1010340501,2.65,2.6,3.3,2.63,3.2,2.41,3.35,2.71,2.59,เขมราฐพิทยาคม,เขมราฐ,อุบลราชธานี,34170
5813405019,ไม่แยกสาขา,1,10,2558,โควตาพื้นที่บริการ,"คณะวิศวกรรมศาสตร์""",ม.6,1011331702,3.65,3.95,3.91,3.9,4,3.38,4,3.7,3.33,ภูสิงห์ประชาเสริมวิทย์,ภูสิงห์,ศรีสะเกษ,33140
5813400938,ไม่แยกสาขา,1,10,2558,โควตาพื้นที่บริการ,"คณะวิศวกรรมศาสตร์""",ม.6,1010340405,3.44,3.5,3.6,2.8,3.7,3.58,3.82,3.39,3,บ้านไทยวิทยาคม,เขื่องใน,อุบลราชธานี,34320
5813401719,ไม่แยกสาขา,1,10,2558,โควตาพื้นที่บริการ,"คณะวิศวกรรมศาสตร์""",ม.6,1010490201,3.01,2.7,4,3.23,4,2.45,3.69,3.27,2.85,คำสร้อยพิทยาสรรค์,นิคมคำสร้อย,มุกดาหาร,49130
5813402566,ไม่แยกสาขา,1,10,2558,โควตาพื้นที่บริการ,"คณะวิศวกรรมศาสตร์""",ม.6,1010340201,2.44,3.1,3.5,2,3.3,2.11,2.34,3.25,2.58,ศรีเมืองวิทยาคาร,ศรีเมืองใหม่,อุบลราชธานี,34250
5813401789,ไม่แยกสาขา,1,10,2558,โควตาพื้นที่บริการ,"คณะวิศวกรรมศาสตร์""",ม.6,1010340701,3.52,3.8,3.65,3.81,3.9,3.35,3.5,3.73,3.26,เดชอุดม,เดชอุดม,อุบลราชธานี,34160
5813403967,ไม่แยกสาขา,1,10,2558,โควตาพื้นที่บริการ,"คณะวิศวกรรมศาสตร์""",ม.6,1010341501,3.18,3.03,3.5,3.3,3.6,3.14,3.33,3.3,2.88,ลือคำหาญวารินชำราบ,วารินชำราบ,อุบลราชธานี,34190
5813402055,ไม่แยกสาขา,1,10,2558,โควตาพื้นที่บริการ,"คณะวิศวกรรมศาสตร์""",ม.6,1010341401,2.61,3.1,3.75,2.11,3.3,2.4,3.25,3.34,2,ม่วงสามสิบอัมพวันวิทยา,ม่วงสามสิบ,อุบลราชธานี,34140
5813405655,ไม่แยกสาขา,1,10,2558,โควตาพื้นที่บริการ,"คณะวิศวกรรมศาสตร์""",ม.6,1010340701,3.21,3.5,3.9,3.11,3.5,2.99,3.58,3.3,3,เดชอุดม,เดชอุดม,อุบลราชธานี,34160
5813403102,ไม่แยกสาขา,1,10,2558,โควตาพื้นที่บริการ,"คณะวิศวกรรมศาสตร์""",ม.6,1010340201,2.52,2.9,3.3,2.15,2.9,2.43,3.07,2.85,2.31,ศรีเมืองวิทยาคาร,ศรีเมืองใหม่,อุบลราชธานี,34250
5813404396,ไม่แยกสาขา,1,10,2558,โควตาพื้นที่บริการ,"คณะวิศวกรรมศาสตร์""",ม.6,3034100105,3.3,2.4,2.6,3.61,2.9,3.38,3.4,3.35,3.35,หนองบัวฮีวิทยาคม,พิบูลมังสาหาร,อุบลราชธานี,34110
5813402792,ไม่แยกสาขา,1,10,2558,โควตาพื้นที่บริการ,"คณะวิศวกรรมศาสตร์""",ม.6,1010341501,2.56,2.73,3.25,2.28,3,2.19,3.12,3.2,2.38,ลือคำหาญวารินชำราบ,วารินชำราบ,อุบลราชธานี,34190
5813402654,ไม่แยกสาขา,1,10,2558,โควตาพื้นที่บริการ,"คณะวิศวกรรมศาสตร์""",ม.6,3034100101,3.36,3.45,3.8,3.8,3.4,3.18,3.87,3.13,2.83,พิบูลมังสาหาร,พิบูลมังสาหาร,อุบลราชธานี,34110
5813401460,ไม่แยกสาขา,1,10,2558,โควตาพื้นที่ภาคอิสาน,"คณะวิศวกรรมศาสตร์""",ม.6,1010460101,3.02,3,3.85,3.02,4,2.42,3.31,3.5,3.24,กาฬสินธุ์พิทยาสรรพ์,เมือง,กาฬสินธุ์,46000
5813404009,ไม่แยกสาขา,1,10,2558,โควตาพื้นที่บริการ,"คณะวิศวกรรมศาสตร์""",ม.6,1011320701,3.1,3.3,3.91,2.67,3.9,2.74,3.9,3.1,3.26,รัตนบุรี,รัตนบุรี,สุรินทร์,32130
5813401144,ไม่แยกสาขา,1,10,2558,โควตาพื้นที่บริการ,"คณะวิศวกรรมศาสตร์""",ม.6,1010341501,2.54,2.73,3.05,2.12,2.7,2.06,3.27,3.26,2.42,ลือคำหาญวารินชำราบ,วารินชำราบ,อุบลราชธานี,34190
5813401067,ไม่แยกสาขา,1,10,2558,โควตาพื้นที่บริการ,"คณะวิศวกรรมศาสตร์""",ม.6,1010340101,2.62,2.2,3.44,2.34,2.8,2.29,3.42,2.93,2.6,เบ็ญจะมะมหาราช,เมือง,อุบลราชธานี,34000
5813404599,ไม่แยกสาขา,1,10,2558,โควตาพื้นที่บริการ,"คณะวิศวกรรมศาสตร์""",ม.6,1010340701,3.46,3.8,3.7,3.44,3.8,3.44,3.71,3.42,3.2,เดชอุดม,เดชอุดม,อุบลราชธานี,34160
5813406163,ไม่แยกสาขา,3,10,2558,โควตาพื้นที่บริการ,"คณะวิศวกรรมศาสตร์""",ม.6,1010340101,2.78,3,3.55,2.54,2.3,2.6,3.73,2.93,2.32,เบ็ญจะมะมหาราช,เมือง,อุบลราชธานี,34000
5813405372,ไม่แยกสาขา,1,10,2558,โควตาพื้นที่บริการ,"คณะวิศวกรรมศาสตร์""",ม.6,1010340701,3.23,3.5,3.5,3.03,3.5,3.35,3.71,3.38,2.76,เดชอุดม,เดชอุดม,อุบลราชธานี,34160
5813403638,ไม่แยกสาขา,1,10,2558,โควตาพื้นที่บริการ,"คณะวิศวกรรมศาสตร์""",ม.6,1010340102,2.39,2.4,3.9,2.08,3.4,1.99,3.23,2.31,2.87,นารีนุกูล,เมือง,อุบลราชธานี,34000
5813403232,ไม่แยกสาขา,1,10,2558,โควตาพื้นที่บริการ,"คณะวิศวกรรมศาสตร์""",ม.6,1010480101,3.39,3.9,3.9,3.26,4,2.87,3.72,3.79,3.67,ปิยะมหาราชาลัย,เมือง,นครพนม,48000
5813401650,ไม่แยกสาขา,1,10,2558,โควตาพื้นที่บริการ,"คณะวิศวกรรมศาสตร์""",ม.6,1010340701,3.25,3.4,3.7,3.55,3.9,3.12,3.42,2.88,3,เดชอุดม,เดชอุดม,อุบลราชธานี,34160
5813402977,ไม่แยกสาขา,1,10,2558,โควตาพื้นที่บริการ,"คณะวิศวกรรมศาสตร์""",ม.6,1009471501,3.2,2.7,3.43,3.48,3,3.03,3.61,3.46,3.1,ร่มเกล้า,โคกศรีสุพรรณ,สกลนคร,47280
5813400639,ไม่แยกสาขา,1,10,2558,โควตาพื้นที่ภาคอิสาน,"คณะวิศวกรรมศาสตร์""",ม.6,1010440901,3.36,3.3,3.92,3.18,4,2.79,3.95,3.84,3.51,วาปีปทุม,วาปีปทุม,มหาสารคาม,44120
5813404736,ไม่แยกสาขา,1,10,2558,โควตาพื้นที่บริการ,"คณะวิศวกรรมศาสตร์""",ม.6,3033100137,3.95,4,4,4,3.8,3.91,4,3.93,3.93,ราษีไศล,ราษีไศล,ศรีสะเกษ,33160
5813402128,ไม่แยกสาขา,1,10,2558,โควตาพื้นที่บริการ,"คณะวิศวกรรมศาสตร์""",ม.6,1010340701,2.78,3.4,3.25,2.27,3,2.99,3.35,3.03,1.65,เดชอุดม,เดชอุดม,อุบลราชธานี,34160
5813403807,ไม่แยกสาขา,1,10,2558,โควตาพื้นที่บริการ,"คณะวิศวกรรมศาสตร์""",ม.6,1010341101,2.89,3.1,3.4,2.46,3.4,2.61,3.9,3.44,2.69,มัธยมตระการพืชผล,ตระการพืชผล,อุบลราชธานี,34130
5813405219,ไม่แยกสาขา,1,10,2558,โควตาพื้นที่บริการ,"คณะวิศวกรรมศาสตร์""",ม.6,1010341101,2.86,3,3.6,2.94,3.3,2.55,3.75,3.68,2.35,มัธยมตระการพืชผล,ตระการพืชผล,อุบลราชธานี,34130
5813402332,ไม่แยกสาขา,1,10,2558,โควตาพื้นที่บริการ,"คณะวิศวกรรมศาสตร์""",ม.6,1010340801,3.4,3.5,4,3.63,3.9,3.32,3.59,3.53,2.75,นาจะหลวย,นาจะหลวย,อุบลราชธานี,34280
5813401859,ไม่แยกสาขา,1,10,2558,โควตาพื้นที่บริการ,"คณะวิศวกรรมศาสตร์""",ม.6,1010340801,3.49,3.7,3.9,3.6,3.8,3.38,3.68,3.57,3.2,นาจะหลวย,นาจะหลวย,อุบลราชธานี,34280
5813401834,ไม่แยกสาขา,1,10,2558,โควตาพื้นที่บริการ,"คณะวิศวกรรมศาสตร์""",ม.6,1010340801,3.6,3.5,4,3.76,3.9,3.54,4,3.88,3,นาจะหลวย,นาจะหลวย,อุบลราชธานี,34280
5813404867,ไม่แยกสาขา,1,10,2558,โควตาพื้นที่บริการ,"คณะวิศวกรรมศาสตร์""",ม.6,1010450901,3.3,3.5,3.85,2.85,4,3.18,3.8,3.57,3.16,หนองพอกวิทยา,หนองพอก,ร้อยเอ็ด,45210
5813405926,ไม่แยกสาขา,1,10,2558,โควตาพื้นที่บริการ,"คณะวิศวกรรมศาสตร์""",ม.6,1010450701,3.39,3.5,3.8,3.56,3.5,2.81,3.86,3.85,3.66,โพนทองพัฒนาวิทยา,โพนทอง,ร้อยเอ็ด,45110
5813402815,ไม่แยกสาขา,1,10,2558,โควตาพื้นที่บริการ,"คณะวิศวกรรมศาสตร์""",ม.6,1010370602,3.67,3.58,3.82,3.59,3.9,3.5,3.93,3.7,3.93,ศรีเจริญศึกษา,หัวตะพาน,อำนาจเจริญ,37240
5813402608,ไม่แยกสาขา,1,10,2558,โควตาพื้นที่บริการ,"คณะวิศวกรรมศาสตร์""",ม.6,1010340701,2.69,3.2,3.65,2.27,2.6,2.54,3.23,2.42,1.7,เดชอุดม,เดชอุดม,อุบลราชธานี,34160
5813404700,ไม่แยกสาขา,1,10,2558,โควตาพื้นที่บริการ,"คณะวิศวกรรมศาสตร์""",ม.6,1010340101,2.96,3.1,3.7,2.6,3.5,2.61,3.61,3.06,3,เบ็ญจะมะมหาราช,เมือง,อุบลราชธานี,34000
5813400604,ไม่แยกสาขา,1,10,2558,โควตาพื้นที่บริการ,"คณะวิศวกรรมศาสตร์""",ม.6,1010340701,2.81,3.3,3.7,3.05,3.8,2.52,3.5,3.03,1.7,เดชอุดม,เดชอุดม,อุบลราชธานี,34160
5813405758,ไม่แยกสาขา,1,10,2558,โควตาพื้นที่บริการ,"คณะวิศวกรรมศาสตร์""",ม.6,1010340701,3.37,3.5,3.6,3.03,3.9,3.45,3.64,3.65,3.1,เดชอุดม,เดชอุดม,อุบลราชธานี,34160
5813403571,ไม่แยกสาขา,1,10,2558,โควตาพื้นที่บริการ,"คณะวิศวกรรมศาสตร์""",ม.6,1010341501,2.77,3.07,3.65,2.52,2.8,2.48,3.62,3.4,2.37,ลือคำหาญวารินชำราบ,วารินชำราบ,อุบลราชธานี,34190
5813402880,ไม่แยกสาขา,1,10,2558,โควตาพื้นที่บริการ,"คณะวิศวกรรมศาสตร์""",ม.6,1010350801,3.86,3.7,3.87,3.85,3.9,3.87,3.71,3.85,4,เลิงนกทา,เลิงนกทา,ยโสธร,35120
5813401089,ไม่แยกสาขา,1,10,2558,โควตาพื้นที่บริการ,"คณะวิศวกรรมศาสตร์""",ม.6,1010341101,2.58,2.4,3.3,2.12,3,2.42,3.5,2.76,2.73,มัธยมตระการพืชผล,ตระการพืชผล,อุบลราชธานี,34130
5813400808,ไม่แยกสาขา,1,10,2558,โควตาพื้นที่บริการ,"คณะวิศวกรรมศาสตร์""",ม.6,1010340102,2.66,3,3.8,2.2,4,2.19,3.88,2.78,2.68,นารีนุกูล,เมือง,อุบลราชธานี,34000
5813401884,ไม่แยกสาขา,1,10,2558,โควตาพื้นที่บริการ,"คณะวิศวกรรมศาสตร์""",ม.6,1011330102,3.22,3.8,3.87,2.52,3.6,3.16,3.53,3.58,3.09,สตรีสิริเกศ,เมือง,ศรีสะเกษ,33000
5813403307,ไม่แยกสาขา,1,10,2558,โควตาพื้นที่บริการ,"คณะวิศวกรรมศาสตร์""",ม.6,1010341501,3.18,2.88,3.75,3.1,4,3.36,3.5,3.83,2.4,ลือคำหาญวารินชำราบ,วารินชำราบ,อุบลราชธานี,34190
5813401210,ไม่แยกสาขา,1,10,2558,โควตาพื้นที่บริการ,"คณะวิศวกรรมศาสตร์""",ม.6,1010341501,2.62,1.92,3,3.05,2.4,2.38,2.33,2.63,2.72,ลือคำหาญวารินชำราบ,วารินชำราบ,อุบลราชธานี,34190
5813404934,ไม่แยกสาขา,1,10,2558,โควตาพื้นที่บริการ,"คณะวิศวกรรมศาสตร์""",ม.6,1010350602,3.61,4,3.7,3.66,4,3.63,3.75,3.71,2.83,ตระกูลประเทืองวิทยาคม,มหาชนะชัย,ยโสธร,35130
5813402887,ไม่แยกสาขา,1,10,2558,โควตาพื้นที่บริการ,"คณะวิศวกรรมศาสตร์""",ม.6,1010370101,2.39,2,3.7,1.83,3.7,2.21,3.7,3.23,1.94,อำนาจเจริญ,เมือง,อำนาจเจริญ,37000
5813404986,ไม่แยกสาขา,1,10,2558,โควตาพื้นที่บริการ,"คณะวิศวกรรมศาสตร์""",ม.6,1010370401,3.08,3.59,3.8,3.13,3.7,2.61,3.66,3.53,2.43,พนาศึกษา,พนา,อำนาจเจริญ,37180
5813402110,ไม่แยกสาขา,1,10,2558,โควตาพื้นที่บริการ,"คณะวิศวกรรมศาสตร์""",ม.6,1010350602,3.13,3.7,3.8,3.36,3.9,2.81,3.25,3.53,2.36,ตระกูลประเทืองวิทยาคม,มหาชนะชัย,ยโสธร,35130
5813401623,ไม่แยกสาขา,1,10,2558,โควตาพื้นที่บริการ,"คณะวิศวกรรมศาสตร์""",ม.6,1010341501,2.85,2.23,3.1,2.91,2.9,2.65,2.66,2.93,3.17,ลือคำหาญวารินชำราบ,วารินชำราบ,อุบลราชธานี,34190
5813404995,ไม่แยกสาขา,1,10,2558,โควตาพื้นที่บริการ,"คณะวิศวกรรมศาสตร์""",ม.6,1010341501,2.64,2.76,3.7,3.18,3.4,2.25,2.5,3.03,2.12,ลือคำหาญวารินชำราบ,วารินชำราบ,อุบลราชธานี,34190
5813403762,ไม่แยกสาขา,1,10,2558,โควตาพื้นที่บริการ,"คณะวิศวกรรมศาสตร์""",ม.6,1010451101,3.33,3.2,3.6,3.66,3.6,3.14,3.9,3.5,2.96,สุวรรณภูมิพิทยไพศาล,สุวรรณภูมิ,ร้อยเอ็ด,45130
5813405118,ไม่แยกสาขา,1,10,2558,โควตาพื้นที่บริการ,"คณะวิศวกรรมศาสตร์""",ม.6,1010340901,3.69,3.8,3.75,3.89,3.8,3.68,3.75,3.08,3.7,น้ำยืนวิทยา,น้ำยืน,อุบลราชธานี,34260
5813405393,ไม่แยกสาขา,1,10,2558,โควตาพื้นที่บริการ,"คณะวิศวกรรมศาสตร์""",ม.6,1010340901,3.28,3.4,3.75,3.1,3.7,3.2,4,3.41,3.26,น้ำยืนวิทยา,น้ำยืน,อุบลราชธานี,34260
5813401661,ไม่แยกสาขา,1,10,2558,โควตาพื้นที่บริการ,"คณะวิศวกรรมศาสตร์""",ม.6,1010340901,2.91,3.2,3.58,2.67,3.5,2.81,4,3.25,2.55,น้ำยืนวิทยา,น้ำยืน,อุบลราชธานี,34260
5813401228,ไม่แยกสาขา,1,10,2558,โควตาพื้นที่บริการ,"คณะวิศวกรรมศาสตร์""",ม.6,1010341501,2.29,1.69,2.8,2.53,1.7,2.26,2.75,1.9,2.27,ลือคำหาญวารินชำราบ,วารินชำราบ,อุบลราชธานี,34190
5813406438,ไม่แยกสาขา,3,10,2558,โควตาพื้นที่บริการ,"คณะวิศวกรรมศาสตร์""",ม.6,1010340101,2.24,2.3,3.38,1.62,2.6,2.13,2.65,2.71,2.04,เบ็ญจะมะมหาราช,เมือง,อุบลราชธานี,34000
5813405377,ไม่แยกสาขา,1,10,2558,โควตาพื้นที่บริการ,"คณะวิศวกรรมศาสตร์""",ม.6,1010341501,2.87,3.11,3.8,3,3.2,2.52,3.37,3.4,2.42,ลือคำหาญวารินชำราบ,วารินชำราบ,อุบลราชธานี,34190
5813400723,ไม่แยกสาขา,1,10,2558,โควตาพื้นที่ภาคอิสาน,"คณะวิศวกรรมศาสตร์""",ม.6,1009410501,3.12,2.56,3.2,2.98,3.3,3.2,3.77,3.29,3.06,โนนสะอาดพิทยาสรรค์,โนนสะอาด,อุดรธานี,41240
5813401035,ไม่แยกสาขา,1,10,2558,โควตาพื้นที่บริการ,"คณะวิศวกรรมศาสตร์""",ม.6,1009470801,3.77,3.7,3.91,3.5,3.9,3.84,4,3.63,3.81,มัธยมวานรนิวาส,วานรนิวาส,สกลนคร,47120
5813405627,ไม่แยกสาขา,1,10,2558,โควตาพื้นที่บริการ,"คณะวิศวกรรมศาสตร์""",ม.6,1009471501,3.34,3.9,4,3.72,3,2.83,3.89,3.89,3.3,ร่มเกล้า,โคกศรีสุพรรณ,สกลนคร,47280
5813404034,ไม่แยกสาขา,1,10,2558,โควตาพื้นที่บริการ,"คณะวิศวกรรมศาสตร์""",ม.6,1010340101,2.95,2.9,3.6,2.52,3.7,2.65,3.61,3.34,2.84,เบ็ญจะมะมหาราช,เมือง,อุบลราชธานี,34000
5813402343,ไม่แยกสาขา,1,10,2558,โควตาพื้นที่บริการ,"คณะวิศวกรรมศาสตร์""",ม.6,1010370101,2.07,1.5,3.2,1.44,3,2.1,2.95,2.26,2.02,อำนาจเจริญ,เมือง,อำนาจเจริญ,37000
5813403509,ไม่แยกสาขา,1,10,2558,โควตาพื้นที่บริการ,"คณะวิศวกรรมศาสตร์""",ม.6,1010340103,3.58,4,3.5,3.77,3.2,3.31,3.58,3.89,3.96,ปทุมพิทยาคม,เมือง,อุบลราชธานี,34000
5813403558,ไม่แยกสาขา,1,10,2558,โควตาพื้นที่บริการ,"คณะวิศวกรรมศาสตร์""",ม.6,1010340401,3.5,3.41,3.9,3.31,4,3.34,3.93,3.88,3.17,เขื่องในพิทยาคาร,เขื่องใน,อุบลราชธานี,34150
5813405049,ไม่แยกสาขา,1,10,2558,โควตาพื้นที่บริการ,"คณะวิศวกรรมศาสตร์""",ม.6,1010370101,3.33,3.6,4,2.83,4,3.29,4,3.76,2.86,อำนาจเจริญ,เมือง,อำนาจเจริญ,37000
5813401134,ไม่แยกสาขา,1,10,2558,โควตาพื้นที่บริการ,"คณะวิศวกรรมศาสตร์""",ม.6,1010350201,2.98,3.5,3.85,2.63,4,2.57,3.88,3.28,2.85,ทรายมูลวิทยา,ทรายมูล,ยโสธร,35170
5813404222,ไม่แยกสาขา,1,10,2558,โควตาพื้นที่บริการ,"คณะวิศวกรรมศาสตร์""",ม.6,1010341201,3.11,3.16,3.5,3.12,3.9,2.84,3.83,3.32,2.92,กุดข้าวปุ้นวิทยา,กุดข้าวปุ้น,อุบลราชธานี,34270
5813400649,ไม่แยกสาขา,1,10,2558,โควตาพื้นที่บริการ,"คณะวิศวกรรมศาสตร์""",ม.6,1010340701,2.74,2.8,3.65,2.66,3.2,2.49,3.14,2.23,2.1,เดชอุดม,เดชอุดม,อุบลราชธานี,34160
5813402135,ไม่แยกสาขา,1,10,2558,โควตาพื้นที่บริการ,"คณะวิศวกรรมศาสตร์""",ม.6,1010340701,2.49,2.8,3.65,2.33,2.9,2.24,2.67,2.3,1.4,เดชอุดม,เดชอุดม,อุบลราชธานี,34160
5813402479,ไม่แยกสาขา,1,10,2558,โควตาพื้นที่บริการ,"คณะวิศวกรรมศาสตร์""",ม.6,1010490101,2.28,2.6,2.7,1.51,3.5,2.08,2.55,2.64,3.1,มุกดาหาร,เมือง,มุกดาหาร,49000
5813400916,ไม่แยกสาขา,1,10,2558,โควตาพื้นที่บริการ,"คณะวิศวกรรมศาสตร์""",ม.6,1010341504,2.42,2.1,3.9,2.38,3,2.18,2.76,2.75,1.9,วิจิตราพิทยา,วารินชำราบ,อุบลราชธานี,34190
5813402284,ไม่แยกสาขา,1,10,2558,โควตาพื้นที่บริการ,"คณะวิศวกรรมศาสตร์""",ม.6,1011330301,2.86,3.37,4,2.36,3.37,2.35,3.37,3.58,3.42,กันทรารมณ์,กันทรารมย์,ศรีสะเกษ,33130
5813403547,ไม่แยกสาขา,1,10,2558,โควตาพื้นที่บริการ,"คณะวิศวกรรมศาสตร์""",ม.6,1010450401,3.63,3.7,3.75,3.72,3.8,3.58,4,3.39,3.57,จตุรพักตรพิมานรัชดาภิเษก,จตุรพักตรพิมาน,ร้อยเอ็ด,45180
5813401013,ไม่แยกสาขา,1,10,2558,โควตาพื้นที่บริการ,"คณะวิศวกรรมศาสตร์""",ม.6,1010340101,2.49,2,2.94,2.14,2.5,2.68,3.23,2.62,1.79,เบ็ญจะมะมหาราช,เมือง,อุบลราชธานี,34000
5813404573,ไม่แยกสาขา,1,10,2558,โควตาพื้นที่บริการ,"คณะวิศวกรรมศาสตร์""",ม.6,1010490101,3.12,3.8,3.1,2.8,3.25,2.87,3.72,3.57,3.37,มุกดาหาร,เมือง,มุกดาหาร,49000
5813403915,ไม่แยกสาขา,1,10,2558,โควตาพื้นที่บริการ,"คณะวิศวกรรมศาสตร์""",ม.6,1010340701,3.04,3.2,3.25,3.11,2.6,2.92,3.55,2.26,2.8,เดชอุดม,เดชอุดม,อุบลราชธานี,34160
5813402099,ไม่แยกสาขา,1,10,2558,โควตาพื้นที่บริการ,"คณะวิศวกรรมศาสตร์""",ม.6,1010341501,2.44,1.96,3.2,2.7,2.8,2.41,2.61,2.76,1.66,ลือคำหาญวารินชำราบ,วารินชำราบ,อุบลราชธานี,34190
5813404504,ไม่แยกสาขา,1,10,2558,โควตาพื้นที่บริการ,"คณะวิศวกรรมศาสตร์""",ม.6,1010341102,2.72,2.7,3.93,2.42,3.7,2.56,3.75,2.88,2.45,สะพือวิทยาคาร,ตระการพืชผล,อุบลราชธานี,34130
5813403892,ไม่แยกสาขา,1,10,2558,โควตาพื้นที่บริการ,"คณะวิศวกรรมศาสตร์""",ม.6,1011330102,3.41,3.8,3.81,3.14,3.7,3.38,3.66,3.5,3.19,สตรีสิริเกศ,เมือง,ศรีสะเกษ,33000
5813400968,ไม่แยกสาขา,1,10,2558,โควตาพื้นที่บริการ,"คณะวิศวกรรมศาสตร์""",ม.6,1010350402,2.98,3,3.3,2.84,3,2.86,3.08,3.35,2.84,สมเด็จพระญาณสังวร,คำเขื่อนแก้ว,ยโสธร,35180
5813403998,ไม่แยกสาขา,1,10,2558,โควตาพื้นที่บริการ,"คณะวิศวกรรมศาสตร์""",ม.6,1010370101,2.87,2.5,3.8,2.77,3.6,2.75,3.7,3.5,2.44,อำนาจเจริญ,เมือง,อำนาจเจริญ,37000
5813404839,ไม่แยกสาขา,1,10,2558,โควตาพื้นที่บริการ,"คณะวิศวกรรมศาสตร์""",ม.6,1010350401,2.65,2.6,3.75,2.1,4,2.4,3.5,3.6,2.35,คำเขื่อนแก้วชนูปถัมภ์,คำเขื่อนแก้ว,ยโสธร,35110
5813404635,ไม่แยกสาขา,1,10,2558,โควตาพื้นที่บริการ,"คณะวิศวกรรมศาสตร์""",ม.6,1010451901,2.63,3.5,3.75,2.79,3,1.93,3.62,3,2.64,หนองฮีเจริญวิทย์,พนมไพร,ร้อยเอ็ด,45140
5813400931,ไม่แยกสาขา,1,10,2558,โควตาพื้นที่บริการ,"คณะวิศวกรรมศาสตร์""",ม.6,1010340101,2.82,3.2,3.8,2.46,3.2,2.44,3.41,3.5,2.52,เบ็ญจะมะมหาราช,เมือง,อุบลราชธานี,34000
5813405063,ไม่แยกสาขา,1,10,2558,โควตาพื้นที่บริการ,"คณะวิศวกรรมศาสตร์""",ม.6,1011320902,2.43,2.2,3.41,2.43,2.8,2.15,3,2.81,2.05,แตลศิริวิทยา,ศีขรภูมิ,สุรินทร์,32110
5813402427,ไม่แยกสาขา,1,10,2558,โควตาพื้นที่บริการ,"คณะวิศวกรรมศาสตร์""",ม.6,1010340501,2.66,2.5,3.4,2.86,2.6,2.66,3.21,2.42,1.68,เขมราฐพิทยาคม,เขมราฐ,อุบลราชธานี,34170
5813405161,ไม่แยกสาขา,1,10,2558,โควตาพื้นที่บริการ,"คณะวิศวกรรมศาสตร์""",ม.6,1010340104,2.41,2.3,3.94,2.28,3.1,2.2,3.22,1.96,2.22,เตรียมอุดมศึกษาพัฒนาการอุบลราชธานี,เมือง,อุบลราชธานี,34000
5813403430,ไม่แยกสาขา,1,10,2558,โควตาพื้นที่บริการ,"คณะวิศวกรรมศาสตร์""",ม.6,1010340501,2.66,2.6,3.45,2.56,2.9,2.71,2.78,3,1.78,เขมราฐพิทยาคม,เขมราฐ,อุบลราชธานี,34170
5813405417,ไม่แยกสาขา,1,10,2558,โควตาพื้นที่บริการ,"คณะวิศวกรรมศาสตร์""",ม.6,3035200101,3.09,3.08,4,2.13,2.7,3.33,3.06,3.43,3.26,เทศบาล 1 สุขวิทยากรตั้งตรงจิตร 15,เมือง,ยโสธร,35000
5813401741,ไม่แยกสาขา,1,10,2558,โควตาพื้นที่บริการ,"คณะวิศวกรรมศาสตร์""",ม.6,1010480601,2.94,3.4,3.7,2.56,3.8,2.56,3.9,3,3.28,เรณูนครวิทยานุกูล,เรณูนคร,นครพนม,48170
5813404590,ไม่แยกสาขา,1,10,2558,โควตาพื้นที่บริการ,"คณะวิศวกรรมศาสตร์""",ม.6,1011320902,2.28,2.2,3.5,1.93,3.3,1.57,3.42,3.25,3.25,แตลศิริวิทยา,ศีขรภูมิ,สุรินทร์,32110
5813400826,ไม่แยกสาขา,1,10,2558,โควตาพื้นที่บริการ,"คณะวิศวกรรมศาสตร์""",ม.6,3033100139,3.3,3.7,3.75,3.39,3.8,2.86,3.66,3.64,3.7,ขุนหาญวิทยาสรรค์,ขุนหาญ,ศรีสะเกษ,33150
5813403177,ไม่แยกสาขา,1,10,2558,โควตาพื้นที่บริการ,"คณะวิศวกรรมศาสตร์""",ม.6,1010340701,2.28,2.6,3.2,2.43,2.5,2.12,2.94,1.96,1.35,เดชอุดม,เดชอุดม,อุบลราชธานี,34160
5813404301,ไม่แยกสาขา,1,10,2558,โควตาพื้นที่บริการ,"คณะวิศวกรรมศาสตร์""",ม.6,1010450104,3.4,3.85,4,3.43,4,2.85,4,4,3.3,ขัติยะวงษา,เมือง,ร้อยเอ็ด,45000
5813404772,ไม่แยกสาขา,1,10,2558,โควตาพื้นที่บริการ,"คณะวิศวกรรมศาสตร์""",ม.6,1011330105,2.9,3.5,3.9,2.46,3.2,2.87,2.83,3.1,2.9,ศรีสะเกษวิทยาลัย 2 ห้วยคล้า,เมือง,ศรีสะเกษ,33000
5813404854,ไม่แยกสาขา,1,10,2558,โควตาพื้นที่บริการ,"คณะวิศวกรรมศาสตร์""",ม.6,1134100114,2.67,3.15,3.18,2.27,3.42,2.44,3.13,2.67,2.54,นันตาศึกษา,เขื่องใน,อุบลราชธานี,34150
5813401939,ไม่แยกสาขา,1,10,2558,โควตาพื้นที่บริการ,"คณะวิศวกรรมศาสตร์""",ม.6,1010341001,2.86,2.5,3.65,2.5,3.4,2.67,4,2.96,2.61,บุณฑริกวิทยาคาร,บุณฑริก,อุบลราชธานี,34230
5813402682,ไม่แยกสาขา,1,10,2558,โควตาพื้นที่บริการ,"คณะวิศวกรรมศาสตร์""",ม.6,1010370301,2.87,3,4,2.53,4,2.81,3.5,3,2.12,ปทุมราชวงศา,ปทุมราชวงศา,อำนาจเจริญ,37110
5813403489,ไม่แยกสาขา,1,10,2558,โควตาพื้นที่บริการ,"คณะวิศวกรรมศาสตร์""",ม.6,1134100017,3.34,3.2,3.6,3.52,3.8,3.37,3.7,3.73,2.9,อาเวมารีอา,เมือง,อุบลราชธานี,34000
5813401827,ไม่แยกสาขา,1,10,2558,โควตาพื้นที่บริการ,"คณะวิศวกรรมศาสตร์""",ม.6,1010340101,3.06,3,3.9,2.76,3.6,2.58,3.88,3.59,2.97,เบ็ญจะมะมหาราช,เมือง,อุบลราชธานี,34000
5813402896,ไม่แยกสาขา,1,10,2558,โควตาพื้นที่บริการ,"คณะวิศวกรรมศาสตร์""",ม.6,1010340901,3.8,3.9,3.83,3.89,3.9,3.77,4,3.41,3.88,น้ำยืนวิทยา,น้ำยืน,อุบลราชธานี,34260
5813405933,ไม่แยกสาขา,1,10,2558,โควตาพื้นที่บริการ,"คณะวิศวกรรมศาสตร์""",ม.6,1011320501,2.54,2.6,3.56,2.68,3.2,2.06,2.9,3,2.3,ประสาทวิทยาคาร,ปราสาท,สุรินทร์,32140
5813405241,ไม่แยกสาขา,1,10,2558,โควตาพื้นที่บริการ,"คณะวิศวกรรมศาสตร์""",ม.6,1011331001,3.6,3.46,4,3.34,3.4,3.5,3.96,3.76,3.66,กำแพง,อุทมพรพิสัย,ศรีสะเกษ,33120
5813402000,ไม่แยกสาขา,1,10,2558,โควตาพื้นที่ภาคอิสาน,"คณะวิศวกรรมศาสตร์""",ม.6,1009400501,2.76,2.2,3.8,2.53,2.8,2.68,3.55,2.5,2.67,ชุมแพศึกษา,ชุมแพ,ขอนแก่น,40130
5813405589,ไม่แยกสาขา,1,10,2558,โควตาพื้นที่บริการ,"คณะวิศวกรรมศาสตร์""",ม.6,1011331401,2.76,3.3,3.33,1.87,3.9,2.75,3.46,3.57,2.3,ศรีรัตนวิทยา,ศรีรัตนะ,ศรีสะเกษ,33240
5813402461,ไม่แยกสาขา,1,10,2558,โควตาพื้นที่บริการ,"คณะวิศวกรรมศาสตร์""",ม.6,1134100014,2.82,3.4,3.9,2.7,3.5,2.45,3.7,2.71,2.76,อัสสัมชัญอุบลราชธานี,เมือง,อุบลราชธานี,34000
5813404674,ไม่แยกสาขา,1,10,2558,โควตาพื้นที่ภาคอิสาน,"คณะวิศวกรรมศาสตร์""",ม.6,1009400901,3.31,3.14,3.8,3.3,3.7,3.4,3.53,3.55,2.65,ศรีกระนวนวิทยาคม,กระนวน,ขอนแก่น,40170
5813404442,ไม่แยกสาขา,1,10,2558,โควตาพื้นที่ภาคอิสาน,"คณะวิศวกรรมศาสตร์""",ม.6,1009410401,2.73,3.9,4,1.71,3.8,2.38,3.81,3.81,2.67,กุมภวาปี,กุมภวาปี,อุดรธานี,41110
5813400876,ไม่แยกสาขา,1,10,2558,โควตาพื้นที่บริการ,"คณะวิศวกรรมศาสตร์""",ม.6,1011310701,3.49,3.9,3.75,3.86,3.6,2.97,4,3.92,3.23,ประโคนชัยพิทยาคม,ประโคนชัย,บุรีรัมย์,31140
5813402588,ไม่แยกสาขา,1,10,2558,โควตาพื้นที่บริการ,"คณะวิศวกรรมศาสตร์""",ม.6,1010340701,2.67,3.3,3.67,2.61,3,2.25,2.97,2.53,1.9,เดชอุดม,เดชอุดม,อุบลราชธานี,34160
5813405267,ไม่แยกสาขา,1,10,2558,โควตาพื้นที่ภาคอิสาน,"คณะวิศวกรรมศาสตร์""",ม.6,1010440301,3.27,3.8,3.58,3.5,3.7,2.82,3.5,3.75,3,โกสุมวิทยาสรรค์,โกสุมพิสัย,มหาสารคาม,44140
5813403148,ไม่แยกสาขา,1,10,2558,โควตาพื้นที่บริการ,"คณะวิศวกรรมศาสตร์""",ม.6,1011320501,2.85,3.7,4,2.5,3.7,2.5,3.5,3.35,2.57,ประสาทวิทยาคาร,ปราสาท,สุรินทร์,32140
5813404610,ไม่แยกสาขา,1,10,2558,โควตาพื้นที่บริการ,"คณะวิศวกรรมศาสตร์""",ม.6,1011310701,3.49,3.4,3.7,3.76,3.6,3.28,4,3.5,3.13,ประโคนชัยพิทยาคม,ประโคนชัย,บุรีรัมย์,31140
5813402229,ไม่แยกสาขา,1,10,2558,โควตาพื้นที่บริการ,"คณะวิศวกรรมศาสตร์""",ม.6,1010480601,2.41,2.2,4,2.77,2,2.09,3.9,1.85,2.12,เรณูนครวิทยานุกูล,เรณูนคร,นครพนม,48170
5813404729,ไม่แยกสาขา,1,10,2558,โควตาพื้นที่บริการ,"คณะวิศวกรรมศาสตร์""",ม.6,1134100014,3.7,4,3.95,3.2,4,3.71,4,3.92,3.76,อัสสัมชัญอุบลราชธานี,เมือง,อุบลราชธานี,34000
5813402044,ไม่แยกสาขา,1,10,2558,โควตาพื้นที่บริการ,"คณะวิศวกรรมศาสตร์""",ม.6,1010340101,2.35,2.7,3.75,1.76,2.4,2.07,2.96,2.65,2.32,เบ็ญจะมะมหาราช,เมือง,อุบลราชธานี,34000
5813402633,ไม่แยกสาขา,1,10,2558,โควตาพื้นที่บริการ,"คณะวิศวกรรมศาสตร์""",ม.6,1010480101,2.98,2.8,4,3.5,3.6,2.53,3.63,2.85,2.84,ปิยะมหาราชาลัย,เมือง,นครพนม,48000
5813400584,ไม่แยกสาขา,1,10,2558,โควตาพื้นที่บริการ,"คณะวิศวกรรมศาสตร์""",ม.6,1010350401,2.31,1.9,3.65,1.53,3.2,2.17,3.82,2.32,2.05,คำเขื่อนแก้วชนูปถัมภ์,คำเขื่อนแก้ว,ยโสธร,35110
5813406444,ไม่แยกสาขา,3,10,2558,โควตาพื้นที่บริการ,"คณะวิศวกรรมศาสตร์""",ม.6,1134100017,3.52,3.9,3.75,3.16,4,3.16,3.95,3.8,3.7,อาเวมารีอา,เมือง,อุบลราชธานี,34000
5813403739,ไม่แยกสาขา,1,10,2558,โควตาพื้นที่บริการ,"คณะวิศวกรรมศาสตร์""",ม.6,1010480103,3.54,3.3,3.96,3.45,4,3.44,3.86,3.7,3.5,นครพนมวิทยาคม,เมือง,นครพนม,48000
5813402354,ไม่แยกสาขา,1,10,2558,โควตาพื้นที่บริการ,"คณะวิศวกรรมศาสตร์""",ม.6,1010340501,2.6,2.6,3.2,1.96,3.2,2.72,3.28,2.92,1.96,เขมราฐพิทยาคม,เขมราฐ,อุบลราชธานี,34170
5813406568,ไม่แยกสาขา,3,10,2558,โควตาพื้นที่บริการ,"คณะวิศวกรรมศาสตร์""",ม.6,1010340101,2.95,3.2,3.85,2.18,3.5,2.62,3.84,3.4,2.95,เบ็ญจะมะมหาราช,เมือง,อุบลราชธานี,34000
5813405060,ไม่แยกสาขา,1,10,2558,โควตาพื้นที่บริการ,"คณะวิศวกรรมศาสตร์""",ม.6,1010341501,3.13,3.03,3.6,2.82,3.6,3.08,3.5,3.66,2.85,ลือคำหาญวารินชำราบ,วารินชำราบ,อุบลราชธานี,34190
5813401540,ไม่แยกสาขา,1,10,2558,โควตาพื้นที่บริการ,"คณะวิศวกรรมศาสตร์""",ม.6,1010340401,3.82,4,4,3.9,4,3.63,4,3.77,3.85,เขื่องในพิทยาคาร,เขื่องใน,อุบลราชธานี,34150
5813400694,ไม่แยกสาขา,1,10,2558,โควตาพื้นที่ภาคอิสาน,"คณะวิศวกรรมศาสตร์""",ม.6,1010460101,3.79,3.9,3.9,3.28,4,3.38,4,3.96,3.52,กาฬสินธุ์พิทยาสรรพ์,เมือง,กาฬสินธุ์,46000
5813401043,ไม่แยกสาขา,1,10,2558,โควตาพื้นที่บริการ,"คณะวิศวกรรมศาสตร์""",ม.6,1010340401,3.88,4,4,3.9,3.9,3.83,4,3.95,3.72,เขื่องในพิทยาคาร,เขื่องใน,อุบลราชธานี,34150
5813401276,ไม่แยกสาขา,1,10,2558,โควตาพื้นที่บริการ,"คณะวิศวกรรมศาสตร์""",ม.6,1010451101,3.03,2.5,3.6,3.03,3.1,2.83,3.81,3.67,2.75,สุวรรณภูมิพิทยไพศาล,สุวรรณภูมิ,ร้อยเอ็ด,45130
5813401754,ไม่แยกสาขา,1,10,2558,โควตาพื้นที่บริการ,"คณะวิศวกรรมศาสตร์""",ม.6,1134100017,3.09,3.4,3.25,2.78,3.6,3.03,3.08,3.43,3.05,อาเวมารีอา,เมือง,อุบลราชธานี,34000
5813406093,ไม่แยกสาขา,3,10,2558,โควตาพื้นที่บริการ,"คณะวิศวกรรมศาสตร์""",ม.6,1010340101,2.87,3,3.9,2.16,3.3,2.56,3.69,3.25,2.93,เบ็ญจะมะมหาราช,เมือง,อุบลราชธานี,34000
5813402734,ไม่แยกสาขา,1,10,2558,โควตาพื้นที่บริการ,"คณะวิศวกรรมศาสตร์""",ม.6,1010490101,3.59,4,3.8,3.95,3.75,3.25,3.94,3.78,3.5,มุกดาหาร,เมือง,มุกดาหาร,49000
5813404167,ไม่แยกสาขา,1,10,2558,โควตาพื้นที่ภาคอิสาน,"คณะวิศวกรรมศาสตร์""",ม.6,1009430301,3.61,3.9,3.91,3.46,4,3.57,3.46,3.82,3.5,บึงกาฬ,บึงกาฬ,บึงกาฬ,38000
5813405853,ไม่แยกสาขา,1,10,2558,โควตาพื้นที่บริการ,"คณะวิศวกรรมศาสตร์""",ม.6,1010341903,3.41,3.5,3.16,4,3.58,3.13,3.66,3.76,2.93,อ่างศิลา,พิบูลมังสาหาร,อุบลราชธานี,34110
5813405567,ไม่แยกสาขา,1,10,2558,โควตาพื้นที่ภาคอิสาน,"คณะวิศวกรรมศาสตร์""",ม.6,1009430301,3.84,4,3.91,3.7,3.7,3.87,3.57,4,3.93,บึงกาฬ,บึงกาฬ,บึงกาฬ,38000
5813402775,ไม่แยกสาขา,1,10,2558,โควตาพื้นที่บริการ,"คณะวิศวกรรมศาสตร์""",ม.6,1010451101,3.18,3,3.5,3.7,3.7,2.56,3.9,3.5,3.13,สุวรรณภูมิพิทยไพศาล,สุวรรณภูมิ,ร้อยเอ็ด,45130
5813402626,ไม่แยกสาขา,1,10,2558,โควตาพื้นที่บริการ,"คณะวิศวกรรมศาสตร์""",ม.6,1010450101,3.03,2.7,3.9,2.8,3.3,2.73,3.5,3.53,3.08,ร้อยเอ็ดวิทยาลัย,เมือง,ร้อยเอ็ด,45000
5813405206,ไม่แยกสาขา,1,10,2558,โควตาพื้นที่ภาคอิสาน,"คณะวิศวกรรมศาสตร์""",ม.6,1009430301,3.77,4,3.91,3.44,4,3.74,3.71,4,3.95,บึงกาฬ,บึงกาฬ,บึงกาฬ,38000
5813405500,ไม่แยกสาขา,1,10,2558,โควตาพื้นที่บริการ,"คณะวิศวกรรมศาสตร์""",ม.6,1010450301,3.23,4,3.85,2.86,4,2.75,3.86,3.59,3.34,ปทุมรัตต์พิทยาคม,ปทุมรัตต์,ร้อยเอ็ด,45190
5813406729,ไม่แยกสาขา,1,10,2558,โควตาพื้นที่บริการ,"คณะวิศวกรรมศาสตร์""",ม.6,1010340102,3.06,3.8,3.9,2.52,3.9,2.87,3.69,3.64,2.54,นารีนุกูล,เมือง,อุบลราชธานี,34000
5813403616,ไม่แยกสาขา,1,10,2558,โควตาพื้นที่บริการ,"คณะวิศวกรรมศาสตร์""",ม.6,1011320901,2.68,2.6,3.9,2.86,4,2.48,3.13,2.12,2.26,ศีขรภูมิพิสัย,ศีขรภูมิ,สุรินทร์,32110
5813404691,ไม่แยกสาขา,1,10,2558,โควตาพื้นที่บริการ,"คณะวิศวกรรมศาสตร์""",ม.6,1010450301,3.33,4,3.8,3.16,3.8,2.83,3.7,3.81,3.56,ปทุมรัตต์พิทยาคม,ปทุมรัตต์,ร้อยเอ็ด,45190
5813404380,ไม่แยกสาขา,1,10,2558,โควตาพื้นที่บริการ,"คณะวิศวกรรมศาสตร์""",ม.6,1010370701,3.93,3.91,4,4,4,3.88,4,3.8,3.87,ลืออำนาจวิทยาคม,ลืออำนาจ,อำนาจเจริญ,37120
5813402621,ไม่แยกสาขา,1,10,2558,โควตาพื้นที่บริการ,"คณะวิศวกรรมศาสตร์""",ม.6,1010340101,2.23,2.5,3.6,1.34,2.3,2.13,3.12,2.5,2.04,เบ็ญจะมะมหาราช,เมือง,อุบลราชธานี,34000
5813403901,ไม่แยกสาขา,1,10,2558,โควตาพื้นที่บริการ,"คณะวิศวกรรมศาสตร์""",ม.6,1011330301,3.08,3.5,3.87,2.63,3.75,3.01,3.62,3.66,2.71,กันทรารมณ์,กันทรารมย์,ศรีสะเกษ,33130
5813404154,ไม่แยกสาขา,1,10,2558,โควตาพื้นที่บริการ,"คณะวิศวกรรมศาสตร์""",ม.6,1010340103,2.59,2.6,3.8,2,3.4,2.58,3.25,3.25,2.11,ปทุมพิทยาคม,เมือง,อุบลราชธานี,34000
5813403287,ไม่แยกสาขา,1,10,2558,โควตาพื้นที่บริการ,"คณะวิศวกรรมศาสตร์""",ม.6,1010343101,3.25,3.1,4,3.8,4,2.77,3.9,3.75,2.88,หกสิบพรรษาวิทยาคม อุบลราชธานี,เหล่าเสือโก้ก,อุบลราชธานี,34000
5813401353,ไม่แยกสาขา,1,10,2558,โควตาพื้นที่บริการ,"คณะวิศวกรรมศาสตร์""",ม.6,1010350801,3.02,3.1,3.68,2.93,3.9,2.84,3.78,2.85,2.97,เลิงนกทา,เลิงนกทา,ยโสธร,35120
5813403415,ไม่แยกสาขา,1,10,2558,โควตาพื้นที่บริการ,"คณะวิศวกรรมศาสตร์""",ม.6,3034100109,2.68,2.9,3.7,1.83,3.2,2.87,2.8,3.15,2.34,น้ำขุ่นวิทยา,น้ำยืน,อุบลราชธานี,34260
5813403684,ไม่แยกสาขา,1,10,2558,โควตาพื้นที่บริการ,"คณะวิศวกรรมศาสตร์""",ม.6,1011330101,2.77,2.89,3.82,2.02,4,2.39,3.4,2.56,2.5,ศรีสะเกษวิทยาลัย,เมือง,ศรีสะเกษ,33000
5813403534,ไม่แยกสาขา,1,10,2558,โควตาพื้นที่บริการ,"คณะวิศวกรรมศาสตร์""",ม.6,1011330401,3.05,3.09,3.5,2.98,3.1,3.02,3.26,3.36,2.68,กันทรลักษ์วิทยา,กันทรลักษ์,ศรีสะเกษ,33110
5813400660,ไม่แยกสาขา,1,10,2558,โควตาพื้นที่บริการ,"คณะวิศวกรรมศาสตร์""",ม.6,1134100014,2.28,2.8,3.25,1.74,3,1.97,3.2,2.78,2.26,อัสสัมชัญอุบลราชธานี,เมือง,อุบลราชธานี,34000
5813405322,ไม่แยกสาขา,1,10,2558,โควตาพื้นที่บริการ,"คณะวิศวกรรมศาสตร์""",ม.6,1011320801,3.41,3.6,3.75,3.01,3.9,3.49,3.7,3.57,3,สนมวิทยาคาร,สนม,สุรินทร์,32160
5813402830,ไม่แยกสาขา,1,10,2558,โควตาพื้นที่บริการ,"คณะวิศวกรรมศาสตร์""",ม.6,1010340101,3.36,3.2,3.75,3.36,3.7,3.08,3.84,3.84,3.1,เบ็ญจะมะมหาราช,เมือง,อุบลราชธานี,34000
5813400902,ไม่แยกสาขา,1,10,2558,โควตาพื้นที่บริการ,"คณะวิศวกรรมศาสตร์""",ม.6,1010340102,2.72,3.4,3.9,2.64,4,2.25,3.69,2.6,2.47,นารีนุกูล,เมือง,อุบลราชธานี,34000
5813401485,ไม่แยกสาขา,1,10,2558,โควตาพื้นที่บริการ,"คณะวิศวกรรมศาสตร์""",ม.6,1134100014,2.05,2.8,3.6,1.6,2.8,1.5,2.7,2.64,2.14,อัสสัมชัญอุบลราชธานี,เมือง,อุบลราชธานี,34000
5813404234,ไม่แยกสาขา,1,10,2558,โควตาพื้นที่บริการ,"คณะวิศวกรรมศาสตร์""",ม.6,1011330101,2.79,2.6,3.2,2.33,3.43,3.02,3.18,2.64,2.62,ศรีสะเกษวิทยาลัย,เมือง,ศรีสะเกษ,33000
5813403032,ไม่แยกสาขา,1,10,2558,โควตาพื้นที่บริการ,"คณะวิศวกรรมศาสตร์""",ม.6,1011330101,3,3.4,4,2.09,3.62,3.18,2.8,3.31,3.08,ศรีสะเกษวิทยาลัย,เมือง,ศรีสะเกษ,33000
5813401109,ไม่แยกสาขา,1,10,2558,โควตาพื้นที่บริการ,"คณะวิศวกรรมศาสตร์""",ม.6,1010340901,3.55,3.4,3.66,3.58,3.9,3.45,4,3.5,3.7,น้ำยืนวิทยา,น้ำยืน,อุบลราชธานี,34260
5813402920,ไม่แยกสาขา,1,10,2558,โควตาพื้นที่บริการ,"คณะวิศวกรรมศาสตร์""",ม.6,1010340101,2.72,2.5,3.8,2.32,2.9,2.4,2.92,3.25,2.89,เบ็ญจะมะมหาราช,เมือง,อุบลราชธานี,34000
5813401352,ไม่แยกสาขา,1,10,2558,โควตาพื้นที่ภาคอิสาน,"คณะวิศวกรรมศาสตร์""",ม.6,1009390101,3.14,3.4,4,3.24,3.7,2.76,3.31,3.35,3.11,หนองบัวพิทยาคาร,เมือง,หนองบัวลำภู,39000
5813404711,ไม่แยกสาขา,1,10,2558,โควตาพื้นที่บริการ,"คณะวิศวกรรมศาสตร์""",ม.6,1010340901,3.8,3.8,3.66,4,3.8,3.84,4,3.5,3.52,น้ำยืนวิทยา,น้ำยืน,อุบลราชธานี,34260
5813405195,ไม่แยกสาขา,1,10,2558,โควตาพื้นที่บริการ,"คณะวิศวกรรมศาสตร์""",ม.6,1010350101,2.74,2.8,2.9,2.53,3.2,2.81,3.54,2.7,2.34,ยโสธรพิทยาคม,เมือง,ยโสธร,35000
5813405803,ไม่แยกสาขา,1,10,2558,โควตาพื้นที่บริการ,"คณะวิศวกรรมศาสตร์""",ม.6,1010340101,2.9,2.29,3.75,2.38,2.6,2.41,3.67,2.93,2.84,เบ็ญจะมะมหาราช,เมือง,อุบลราชธานี,34000
5813403989,ไม่แยกสาขา,1,10,2558,โควตาพื้นที่บริการ,"คณะวิศวกรรมศาสตร์""",ม.6,1010350401,3.03,2.4,3.6,2.8,3.6,2.96,3.57,3.42,3,คำเขื่อนแก้วชนูปถัมภ์,คำเขื่อนแก้ว,ยโสธร,35110
5813405735,ไม่แยกสาขา,1,10,2558,โควตาพื้นที่บริการ,"คณะวิศวกรรมศาสตร์""",ม.6,1010341501,2.74,2.07,3.4,3.08,3,2.79,2.33,3.46,2,ลือคำหาญวารินชำราบ,วารินชำราบ,อุบลราชธานี,34190
5813404628,ไม่แยกสาขา,1,10,2558,โควตาพื้นที่ภาคอิสาน,"คณะวิศวกรรมศาสตร์""",ม.6,3040100101,3.28,3.2,3.6,3.6,4,3.28,3.8,3.33,2.52,เมืองพลพิทยาคม,พล,ขอนแก่น,40120
5813405469,ไม่แยกสาขา,1,10,2558,โควตาพื้นที่ภาคอิสาน,"คณะวิศวกรรมศาสตร์""",ม.6,1009400103,2.72,2.7,3.92,2.18,3.2,2.54,3.68,2.53,2.7,แก่นนครวิทยาลัย,เมือง,ขอนแก่น,40000
5813401505,ไม่แยกสาขา,1,10,2558,โควตาพื้นที่บริการ,"คณะวิศวกรรมศาสตร์""",ม.6,1010342121,2.41,2.06,2.95,1.91,3.4,2.17,3.36,2.82,2.1,ยุวทูตศึกษา 2 อุบล,เมือง,อุบลราชธานี,34000
5813404555,ไม่แยกสาขา,1,10,2558,โควตาพื้นที่บริการ,"คณะวิศวกรรมศาสตร์""",ม.6,1010350602,3.45,3.2,3.6,3.63,3.9,3.69,3.33,3.6,2.23,ตระกูลประเทืองวิทยาคม,มหาชนะชัย,ยโสธร,35130
5813405514,ไม่แยกสาขา,1,10,2558,โควตาพื้นที่บริการ,"คณะวิศวกรรมศาสตร์""",ม.6,1011330501,2.76,2.6,2.9,2.45,3.4,2.5,3.5,3.34,2.92,ขุขันธ์,ขุขันธ์,ศรีสะเกษ,33140
5813402552,ไม่แยกสาขา,1,10,2558,โควตาพื้นที่บริการ,"คณะวิศวกรรมศาสตร์""",ม.6,1010350201,2.53,2.59,3.55,2.43,3.4,2.52,3.34,1.67,2,ทรายมูลวิทยา,ทรายมูล,ยโสธร,35170
5813404143,ไม่แยกสาขา,1,10,2558,โควตาพื้นที่บริการ,"คณะวิศวกรรมศาสตร์""",ม.6,1010340401,2.68,2.58,3.58,2.65,3.4,2.44,3.14,2.58,2.4,เขื่องในพิทยาคาร,เขื่องใน,อุบลราชธานี,34150
5813402698,ไม่แยกสาขา,1,10,2558,โควตาพื้นที่บริการ,"คณะวิศวกรรมศาสตร์""",ม.6,1010370101,3.21,3.1,3.5,3.6,3.1,2.9,3.9,3,3.2,อำนาจเจริญ,เมือง,อำนาจเจริญ,37000
5813401397,ไม่แยกสาขา,1,10,2558,โควตาพื้นที่ภาคอิสาน,"คณะวิศวกรรมศาสตร์""",ม.6,3046100111,3.06,3,3.8,2.68,3.9,3,3.42,3,3.06,บัวขาว,กุฉินารายณ์,กาฬสินธุ์,46110
5813401767,ไม่แยกสาขา,1,10,2558,โควตาพื้นที่บริการ,"คณะวิศวกรรมศาสตร์""",ม.6,1011330109,2.62,3.1,2.5,2.75,2.25,2.28,3.07,3.1,2.66,เฉลิมพระเกียรติสมเด็จพระศรีนครินทร์ ศรีสะเกษ,เมือง,ศรีสะเกษ,33000
5813402667,ไม่แยกสาขา,1,10,2558,โควตาพื้นที่บริการ,"คณะวิศวกรรมศาสตร์""",ม.6,1011330109,2.15,2.6,2.37,1.98,2,1.82,3.04,1.87,2.41,เฉลิมพระเกียรติสมเด็จพระศรีนครินทร์ ศรีสะเกษ,เมือง,ศรีสะเกษ,33000
5813406185,ไม่แยกสาขา,3,10,2558,โควตาพื้นที่บริการ,"คณะวิศวกรรมศาสตร์""",ม.6,1010350101,2.47,2.6,3.3,2.13,2.2,2.31,3.59,2.53,2.32,ยโสธรพิทยาคม,เมือง,ยโสธร,35000
5813401594,ไม่แยกสาขา,1,10,2558,โควตาพื้นที่บริการ,"คณะวิศวกรรมศาสตร์""",ม.6,1009471501,2.89,2.8,4,2.94,2.8,2.42,3.39,3.64,3.2,ร่มเกล้า,โคกศรีสุพรรณ,สกลนคร,47280
5813401247,ไม่แยกสาขา,1,10,2558,โควตาพื้นที่บริการ,"คณะวิศวกรรมศาสตร์""",ปวช.,1334016501,3.5,3.25,3.25,3.25,0,3,3.61,4,3.66,วิทยาลัยสารพัดช่างอุบลราชธานี,เมือง,อุบลราชธานี,34000
5813405802,ไม่แยกสาขา,1,10,2558,โควตาพื้นที่บริการ,"คณะวิศวกรรมศาสตร์""",ม.6,1011320504,3.57,4,3.9,2.82,3.66,3.59,3.75,3.69,3.86,ไทรแก้ววิทยา,ปราสาท,สุรินทร์,32140
5813405254,ไม่แยกสาขา,1,10,2558,โควตาพื้นที่บริการ,"คณะวิศวกรรมศาสตร์""",ม.6,3033100107,3.6,3.7,4,3.78,3.9,3.27,3.85,3.96,3.3,หนองทุ่มศรีสำราญวิทยา,วังหิน,ศรีสะเกษ,33270
5813404927,ไม่แยกสาขา,1,10,2558,โควตาพื้นที่บริการ,"คณะวิศวกรรมศาสตร์""",ม.6,1134100014,2.12,2.5,3.5,1.64,3.1,1.76,3.2,2.6,1.85,อัสสัมชัญอุบลราชธานี,เมือง,อุบลราชธานี,34000
5813403320,ไม่แยกสาขา,1,10,2558,โควตาพื้นที่บริการ,"คณะวิศวกรรมศาสตร์""",ม.6,1010370601,3.1,3.2,3.8,3.36,3.6,2.71,3.33,3.14,3.06,หัวตะพานวิทยาคม,หัวตะพาน,อำนาจเจริญ,37240
5813400944,ไม่แยกสาขา,1,10,2558,โควตาพื้นที่บริการ,"คณะวิศวกรรมศาสตร์""",ม.6,1010370101,2.78,3.1,3.38,1.94,3.6,2.7,3.9,3.36,2.75,อำนาจเจริญ,เมือง,อำนาจเจริญ,37000
5813403138,ไม่แยกสาขา,1,10,2558,โควตาพื้นที่บริการ,"คณะวิศวกรรมศาสตร์""",ม.6,1010480101,3.63,3.8,4,3.86,4,3.39,3.77,3.47,3.67,ปิยะมหาราชาลัย,เมือง,นครพนม,48000
5813402036,ไม่แยกสาขา,1,10,2558,โควตาพื้นที่บริการ,"คณะวิศวกรรมศาสตร์""",ม.6,1010490101,3.08,3.6,3,3.43,3,2.69,3.33,3.21,3.25,มุกดาหาร,เมือง,มุกดาหาร,49000
5813402727,ไม่แยกสาขา,1,10,2558,โควตาพื้นที่บริการ,"คณะวิศวกรรมศาสตร์""",ม.6,1134100014,2.64,3.1,3.8,1.94,3.8,2.26,3.8,3.1,2.79,อัสสัมชัญอุบลราชธานี,เมือง,อุบลราชธานี,34000
5813401303,ไม่แยกสาขา,1,10,2558,โควตาพื้นที่ภาคอิสาน,"คณะวิศวกรรมศาสตร์""",ม.6,1009410101,2.31,2.37,3.27,2.14,3.71,2.15,3.75,1.82,1.55,อุดรพิทยานุกูล,เมือง,อุดรธานี,41000
5813403370,ไม่แยกสาขา,1,10,2558,โควตาพื้นที่บริการ,"คณะวิศวกรรมศาสตร์""",ม.6,1134100014,2.03,2.6,3.6,1.56,2.7,1.63,3,2,2.23,อัสสัมชัญอุบลราชธานี,เมือง,อุบลราชธานี,34000
5813401518,ไม่แยกสาขา,1,10,2558,โควตาพื้นที่บริการ,"คณะวิศวกรรมศาสตร์""",ม.6,1010450101,2.36,3,3.85,1.86,3.2,1.84,2.35,3.17,2.45,ร้อยเอ็ดวิทยาลัย,เมือง,ร้อยเอ็ด,45000
5813402272,ไม่แยกสาขา,1,10,2558,โควตาพื้นที่ภาคอิสาน,"คณะวิศวกรรมศาสตร์""",ม.6,1011300105,2.74,2.5,3.65,2.44,3.6,2.45,3,3.35,2.75,โคราชพิทยาคม,เมือง,นครราชสีมา,30000
5813403083,ไม่แยกสาขา,1,10,2558,โควตาพื้นที่บริการ,"คณะวิศวกรรมศาสตร์""",ม.6,1011310601,2.97,1.9,3.7,3.2,3.8,2.84,3.46,2.9,2.52,ละหานทรายรัชดาภิเษก,ละหานทราย,บุรีรัมย์,31170
5813401173,ไม่แยกสาขา,1,10,2558,โควตาพื้นที่บริการ,"คณะวิศวกรรมศาสตร์""",ม.6,1010340901,2.87,3.3,3.75,3.01,3.7,2.4,3.75,3.41,2.94,น้ำยืนวิทยา,น้ำยืน,อุบลราชธานี,34260
5813405085,ไม่แยกสาขา,1,10,2558,โควตาพื้นที่บริการ,"คณะวิศวกรรมศาสตร์""",ม.6,1134100014,2.24,2.5,3.65,1.78,2.4,1.97,3,2.64,2.14,อัสสัมชัญอุบลราชธานี,เมือง,อุบลราชธานี,34000
5813401388,ไม่แยกสาขา,1,10,2558,โควตาพื้นที่บริการ,"คณะวิศวกรรมศาสตร์""",ม.6,1011330101,2.9,2.8,2.9,2.51,3.5,3.13,2.92,2.56,2.96,ศรีสะเกษวิทยาลัย,เมือง,ศรีสะเกษ,33000
5813402409,ไม่แยกสาขา,1,10,2558,โควตาพื้นที่บริการ,"คณะวิศวกรรมศาสตร์""",ม.6,1010350101,2.69,2.2,3.3,2.16,2.9,2.81,3.54,3,2.4,ยโสธรพิทยาคม,เมือง,ยโสธร,35000
5813403765,ไม่แยกสาขา,1,10,2558,โควตาพื้นที่ภาคอิสาน,"คณะวิศวกรรมศาสตร์""",ม.6,1011300105,2.48,1.9,3.55,1.92,3.6,2.2,3.31,2.71,2.52,โคราชพิทยาคม,เมือง,นครราชสีมา,30000
5813403717,ไม่แยกสาขา,1,10,2558,โควตาพื้นที่บริการ,"คณะวิศวกรรมศาสตร์""",ม.6,1010341501,3.17,3.11,3.4,3.11,3.7,3.2,3,3.63,2.78,ลือคำหาญวารินชำราบ,วารินชำราบ,อุบลราชธานี,34190
5813404337,ไม่แยกสาขา,1,10,2558,โควตาพื้นที่ภาคอิสาน,"คณะวิศวกรรมศาสตร์""",ม.6,1009400101,2.1,1.1,3.15,2.17,2.8,2,3,1.79,1.58,ขอนแก่นวิทยายน,เมือง,ขอนแก่น,40000
5813404387,ไม่แยกสาขา,1,10,2558,โควตาพื้นที่ภาคอิสาน,"คณะวิศวกรรมศาสตร์""",ม.6,3046100111,3.05,2.9,4,2.96,3.8,2.89,3.92,2.66,2.93,บัวขาว,กุฉินารายณ์,กาฬสินธุ์,46110
5813400781,ไม่แยกสาขา,1,10,2558,โควตาพื้นที่บริการ,"คณะวิศวกรรมศาสตร์""",ม.6,3033100139,3.09,3.4,3.9,3.22,3.9,2.7,3.66,3.5,3.1,ขุนหาญวิทยาสรรค์,ขุนหาญ,ศรีสะเกษ,33150
5813403820,ไม่แยกสาขา,1,10,2558,โควตาพื้นที่บริการ,"คณะวิศวกรรมศาสตร์""",ม.6,1134100014,3.06,3.4,3.9,2.92,3.7,2.87,3.9,3.39,2.44,อัสสัมชัญอุบลราชธานี,เมือง,อุบลราชธานี,34000
5813400617,ไม่แยกสาขา,1,10,2558,โควตาพื้นที่บริการ,"คณะวิศวกรรมศาสตร์""",ม.6,1010340901,2.79,2.3,3.5,2.57,3.8,2.77,3.75,2.91,2.64,น้ำยืนวิทยา,น้ำยืน,อุบลราชธานี,34260
5813403467,ไม่แยกสาขา,1,10,2558,โควตาพื้นที่บริการ,"คณะวิศวกรรมศาสตร์""",ม.6,1011330107,3.33,3,4,2,3.5,2.5,3.5,4,3,มัธยมโพนค้อ,เมือง,ศรีสะเกษ,33000
5813405432,ไม่แยกสาขา,1,10,2558,โควตาพื้นที่บริการ,"คณะวิศวกรรมศาสตร์""",ม.6,1134100014,3.6,3.9,4,3.14,3.7,3.61,4,3.92,3.41,อัสสัมชัญอุบลราชธานี,เมือง,อุบลราชธานี,34000
5813401433,ไม่แยกสาขา,1,10,2558,โควตาพื้นที่บริการ,"คณะวิศวกรรมศาสตร์""",ม.6,1010340102,3.42,3.3,3.8,2.74,3.7,3.62,3.57,3.32,2.94,นารีนุกูล,เมือง,อุบลราชธานี,34000
5813401618,ไม่แยกสาขา,1,10,2558,โควตาพื้นที่บริการ,"คณะวิศวกรรมศาสตร์""",ม.6,1010340501,3.49,3,3.65,3.86,3.3,3.62,3.64,3.14,2.81,เขมราฐพิทยาคม,เขมราฐ,อุบลราชธานี,34170
5813401956,ไม่แยกสาขา,1,10,2558,โควตาพื้นที่บริการ,"คณะวิศวกรรมศาสตร์""",ม.6,1010450101,3.46,3.7,4,3.13,3.8,3.3,3.78,3.57,3.54,ร้อยเอ็ดวิทยาลัย,เมือง,ร้อยเอ็ด,45000
5813402722,ไม่แยกสาขา,1,10,2558,โควตาพื้นที่บริการ,"คณะวิศวกรรมศาสตร์""",ม.6,1009471201,3.57,4,3.95,3.12,4,3.41,4,3.85,3.55,เตรียมอุดมศึกษา ภาคตะวันออกเฉียงเหนือ,สว่างแดนดิน,สกลนคร,47110
5813404198,ไม่แยกสาขา,1,10,2558,โควตาพื้นที่ภาคอิสาน,"คณะวิศวกรรมศาสตร์""",ม.6,3040100101,2.93,3.3,3.65,3.08,3.71,2.69,3.9,3.16,2.4,เมืองพลพิทยาคม,พล,ขอนแก่น,40120
5813403583,ไม่แยกสาขา,1,10,2558,โควตาพื้นที่บริการ,"คณะวิศวกรรมศาสตร์""",ม.6,1010340101,3.07,3.5,3.9,2.7,3.2,2.74,3.76,3.71,2.66,เบ็ญจะมะมหาราช,เมือง,อุบลราชธานี,34000
5813403751,ไม่แยกสาขา,1,10,2558,โควตาพื้นที่ภาคอิสาน,"คณะวิศวกรรมศาสตร์""",ม.6,1009390401,2.96,2.75,3.66,3.21,4,2.59,3.6,3.66,2.43,ศรีบุญเรืองวิทยาคาร,ศรีบุญเรือง,หนองบัวลำภู,47220
5813404793,ไม่แยกสาขา,1,10,2558,โควตาพื้นที่บริการ,"คณะวิศวกรรมศาสตร์""",ม.6,1011330101,3.48,3.9,4,2.54,3.8,3.65,3.6,3.78,3.53,ศรีสะเกษวิทยาลัย,เมือง,ศรีสะเกษ,33000
5813403672,ไม่แยกสาขา,1,10,2558,โควตาพื้นที่บริการ,"คณะวิศวกรรมศาสตร์""",ม.6,1011311701,2.94,3.1,3.6,2.8,3.3,2.5,3.63,3.18,3.02,โนนสุวรรณพิทยาคม,นางรอง,บุรีรัมย์,31110
5813404889,ไม่แยกสาขา,1,10,2558,โควตาพื้นที่ภาคอิสาน,"คณะวิศวกรรมศาสตร์""",ม.6,1010460603,3.07,2.8,4,2.4,1.5,3.4,3.54,2.56,3.3,กาญจนาภิเษกวิทยาลัย กาฬสินธุ์,เขาวง,กาฬสินธุ์,46160
5813401782,ไม่แยกสาขา,1,10,2558,โควตาพื้นที่บริการ,"คณะวิศวกรรมศาสตร์""",ม.6,1010370101,2.53,2,3.4,2.61,3.6,2.27,3.15,3.46,2.05,อำนาจเจริญ,เมือง,อำนาจเจริญ,37000
5813402862,ไม่แยกสาขา,1,10,2558,โควตาพื้นที่บริการ,"คณะวิศวกรรมศาสตร์""",ม.6,1010450101,2.78,2.3,4,2.53,3,2.39,3.46,3.35,2.75,ร้อยเอ็ดวิทยาลัย,เมือง,ร้อยเอ็ด,45000
5813401449,ไม่แยกสาขา,1,10,2558,โควตาพื้นที่บริการ,"คณะวิศวกรรมศาสตร์""",ม.6,1010451001,3.19,3.2,3.8,3.45,4,2.82,3.89,3.07,3,เสลภูมิพิทยาคม,เสลภูมิ,ร้อยเอ็ด,45120
5813402506,ไม่แยกสาขา,1,10,2558,โควตาพื้นที่บริการ,"คณะวิศวกรรมศาสตร์""",ม.6,1010451101,2.88,2.9,3.6,3.34,3.2,2.67,3.77,2.67,2.26,สุวรรณภูมิพิทยไพศาล,สุวรรณภูมิ,ร้อยเอ็ด,45130
5813402541,ไม่แยกสาขา,1,10,2558,โควตาพื้นที่บริการ,"คณะวิศวกรรมศาสตร์""",ม.6,1009471501,2.61,1.9,3.57,3.02,2.5,2.23,3.28,3.07,2.56,ร่มเกล้า,โคกศรีสุพรรณ,สกลนคร,47280
5813400847,ไม่แยกสาขา,1,10,2558,โควตาพื้นที่บริการ,"คณะวิศวกรรมศาสตร์""",ม.6,1010450701,3.17,3.4,3.9,3,3.5,2.67,3.56,3.85,3.35,โพนทองพัฒนาวิทยา,โพนทอง,ร้อยเอ็ด,45110
5813400559,ไม่แยกสาขา,1,10,2558,โควตาพื้นที่บริการ,"คณะวิศวกรรมศาสตร์""",ม.6,1010451402,3.01,3,4,3.12,3.8,2.7,3.53,3.21,2.35,หนองหมื่นถ่านวิทยา,อาจสามารถ,ร้อยเอ็ด,45160
5813400752,ไม่แยกสาขา,1,10,2558,โควตาพื้นที่บริการ,"คณะวิศวกรรมศาสตร์""",ม.6,1134100014,2.27,2.5,3.8,1.54,3.6,1.85,3.2,3.1,2.23,อัสสัมชัญอุบลราชธานี,เมือง,อุบลราชธานี,34000
5813400871,ไม่แยกสาขา,1,10,2558,โควตาพื้นที่บริการ,"คณะวิศวกรรมศาสตร์""",ปวช.,1334016101,3.27,2.5,3,2.5,0,4,3.3,2.5,3.92,วิทยาลัยเทคนิคอุบลราชธานี,เมือง,อุบลราชธานี,34000
5813405699,ไม่แยกสาขา,1,10,2558,โควตาพื้นที่บริการ,"คณะวิศวกรรมศาสตร์""",ม.6,1011330101,2.91,3,3.64,2.05,3.5,2.95,3.35,3.1,3.21,ศรีสะเกษวิทยาลัย,เมือง,ศรีสะเกษ,33000
5813402770,ไม่แยกสาขา,1,10,2558,โควตาพื้นที่บริการ,"คณะวิศวกรรมศาสตร์""",ปวช.,1334016101,2.86,3.25,3.25,2,0,3.75,3.6,3,1.92,วิทยาลัยเทคนิคอุบลราชธานี,เมือง,อุบลราชธานี,34000
5813402011,ไม่แยกสาขา,1,10,2558,โควตาพื้นที่ภาคอิสาน,"คณะวิศวกรรมศาสตร์""",ม.6,1009430401,2.87,2.7,3.8,2.89,3.7,2.48,3.4,3.53,2.35,พรเจริญวิทยา,พรเจริญ,บึงกาฬ,38180
5813404330,ไม่แยกสาขา,1,10,2558,โควตาพื้นที่ภาคอิสาน,"คณะวิศวกรรมศาสตร์""",ม.6,1010460603,3.33,3.9,3.85,2.7,3.83,3.27,3.91,3.5,3.22,กาญจนาภิเษกวิทยาลัย กาฬสินธุ์,เขาวง,กาฬสินธุ์,46160
5813401054,ไม่แยกสาขา,1,10,2558,โควตาพื้นที่บริการ,"คณะวิศวกรรมศาสตร์""",ปวช.,1334016101,3.31,2.5,3.25,3,0,3.25,3.1,2,3.5,วิทยาลัยเทคนิคอุบลราชธานี,เมือง,อุบลราชธานี,34000
5813403732,ไม่แยกสาขา,1,10,2558,โควตาพื้นที่บริการ,"คณะวิศวกรรมศาสตร์""",ม.6,1010340101,2.5,4,4,1,1,2,1,2,2,เบ็ญจะมะมหาราช,เมือง,อุบลราชธานี,34000
5813404420,ไม่แยกสาขา,1,10,2558,โควตาพื้นที่ภาคอิสาน,"คณะวิศวกรรมศาสตร์""",ม.6,1009401001,2.72,2.6,3.8,2.5,3.2,2.39,3.35,3.03,2.4,บ้านไผ่,บ้านไผ่,ขอนแก่น,40110
5813405041,ไม่แยกสาขา,1,10,2558,โควตาพื้นที่ภาคอิสาน,"คณะวิศวกรรมศาสตร์""",ม.6,1130100026,3.32,3.5,4,3.25,4,3.12,3.76,4,2.97,อัสสัมชัญ นครราชสีมา,เมือง,นครราชสีมา,30000
5813405243,ไม่แยกสาขา,1,10,2558,โควตาพื้นที่ภาคอิสาน,"คณะวิศวกรรมศาสตร์""",ม.6,1010460302,3.53,3.85,3.87,3.72,3.5,3.6,3.88,3.1,2.85,ฟ้าแดดสูงยางวิทยาคาร,กมลาไสย,กาฬสินธุ์,46130
5813403454,ไม่แยกสาขา,1,10,2558,โควตาพื้นที่ภาคอิสาน,"คณะวิศวกรรมศาสตร์""",ม.6,1009400101,2.63,3,3.4,1.96,3.2,2.5,3,2.76,2.67,ขอนแก่นวิทยายน,เมือง,ขอนแก่น,40000
5813401271,ไม่แยกสาขา,1,10,2558,โควตาพื้นที่บริการ,"คณะวิศวกรรมศาสตร์""",ม.6,1011330301,3.29,3,3.5,3.18,3.8,3.38,3.7,3.46,2.88,กันทรารมณ์,กันทรารมย์,ศรีสะเกษ,33130
5813401724,ไม่แยกสาขา,1,10,2558,โควตาพื้นที่บริการ,"คณะวิศวกรรมศาสตร์""",ม.6,1010350101,2.59,2.8,3.4,1.96,3.1,2.59,3.13,2.53,2.68,ยโสธรพิทยาคม,เมือง,ยโสธร,35000
5813405776,ไม่แยกสาขา,1,10,2558,โควตาพื้นที่บริการ,"คณะวิศวกรรมศาสตร์""",ม.6,3034100101,2.05,2.95,3.05,1.87,1.9,1.65,2.75,2.23,2.07,พิบูลมังสาหาร,พิบูลมังสาหาร,อุบลราชธานี,34110
5813402211,ไม่แยกสาขา,1,10,2558,โควตาพื้นที่บริการ,"คณะวิศวกรรมศาสตร์""",ม.6,1011310401,3.14,2.91,3.9,3.44,4,3.07,2.82,3.17,2.7,นางรอง,นางรอง,บุรีรัมย์,31110
5813405348,ไม่แยกสาขา,1,10,2558,โควตาพื้นที่บริการ,"คณะวิศวกรรมศาสตร์""",ปวช.,1334016101,2.83,3.25,2.75,1.75,0,3,3,2.75,2.28,วิทยาลัยเทคนิคอุบลราชธานี,เมือง,อุบลราชธานี,34000
5813402145,ไม่แยกสาขา,1,10,2558,โควตาพื้นที่บริการ,"คณะวิศวกรรมศาสตร์""",ม.6,1011331501,2.93,3.4,3.75,2.7,3.5,2.88,3.35,3,2.65,เขื่อนช้างวิทยาคาร,กันทรารมย์,ศรีสะเกษ,33130
5813405783,ไม่แยกสาขา,1,10,2558,โควตาพื้นที่บริการ,"คณะวิศวกรรมศาสตร์""",ม.6,1010370101,2.77,2.6,3.6,2.94,3.2,2.68,3.05,3.03,2.41,อำนาจเจริญ,เมือง,อำนาจเจริญ,37000
5813405543,ไม่แยกสาขา,1,10,2558,โควตาพื้นที่บริการ,"คณะวิศวกรรมศาสตร์""",ม.6,1010340701,2.62,2.9,3.55,2.55,2.7,2.48,3.05,1.61,2,เดชอุดม,เดชอุดม,อุบลราชธานี,34160
5813401578,ไม่แยกสาขา,1,10,2558,โควตาพื้นที่บริการ,"คณะวิศวกรรมศาสตร์""",ม.6,1011310601,2.19,2.1,3.05,1.92,2.3,1.89,3.07,2.47,2.02,ละหานทรายรัชดาภิเษก,ละหานทราย,บุรีรัมย์,31170
5813400632,ไม่แยกสาขา,1,10,2558,โควตาพื้นที่บริการ,"คณะวิศวกรรมศาสตร์""",ม.6,1011331001,2.51,2.3,3.8,1.75,3.5,2.28,3.4,2.65,2.44,กำแพง,อุทมพรพิสัย,ศรีสะเกษ,33120
5813403912,ไม่แยกสาขา,1,10,2558,โควตาพื้นที่บริการ,"คณะวิศวกรรมศาสตร์""",ม.6,1011321301,2.66,3.3,3.28,2.22,3,2.34,3.17,3.21,2.81,บัวเชดวิทยา,บัวเชด,สุรินทร์,32230
5813403116,ไม่แยกสาขา,1,10,2558,โควตาพื้นที่บริการ,"คณะวิศวกรรมศาสตร์""",ม.6,1010350101,2.94,2.7,3.2,2.46,3.1,3.28,3.27,2.43,2.94,ยโสธรพิทยาคม,เมือง,ยโสธร,35000
5813403039,ไม่แยกสาขา,1,10,2558,โควตาพื้นที่บริการ,"คณะวิศวกรรมศาสตร์""",ม.6,1010450101,3.08,3.6,3.95,2.96,3.7,2.6,3.46,3.78,2.87,ร้อยเอ็ดวิทยาลัย,เมือง,ร้อยเอ็ด,45000
5813401848,ไม่แยกสาขา,1,10,2558,โควตาพื้นที่บริการ,"คณะวิศวกรรมศาสตร์""",ม.6,1010370103,2.29,2.26,3.36,1.62,3.4,2.1,2.76,2.75,2.11,ปลาค้าววิทยานุสรณ์,เมือง,อำนาจเจริญ,37000
5813404275,ไม่แยกสาขา,1,10,2558,โควตาพื้นที่ภาคอิสาน,"คณะวิศวกรรมศาสตร์""",ม.6,1011360108,2.68,3.5,4,2.5,3.5,1.94,3.77,2.89,3.2,กาญจนาภิเษกวิทยาลัย,,ชัยภูมิ,
5813402277,ไม่แยกสาขา,1,10,2558,โควตาพื้นที่บริการ,"คณะวิศวกรรมศาสตร์""",ม.6,1010340901,2.45,3,3.5,2.08,3.6,2.12,3,3.16,2.55,น้ำยืนวิทยา,น้ำยืน,อุบลราชธานี,34260
5813402317,ไม่แยกสาขา,1,10,2558,โควตาพื้นที่บริการ,"คณะวิศวกรรมศาสตร์""",ม.6,1010490108,2.38,2.2,2.9,1.77,3.3,1.97,3.63,3.06,2.18,มุกดาวิทยานุกูล,เมือง,มุกดาหาร,49000
5813403482,ไม่แยกสาขา,1,10,2558,โควตาพื้นที่ภาคอิสาน,"คณะวิศวกรรมศาสตร์""",ม.6,1009410112,3,3.04,3.78,2.66,4,2.79,3.46,2.94,2.94,อุดรพัฒนาการ,เมือง,อุดรธานี,41000
5813401421,ไม่แยกสาขา,1,10,2558,โควตาพื้นที่บริการ,"คณะวิศวกรรมศาสตร์""",ม.6,1010370103,2.85,3.3,3.59,2.12,2.9,2.97,2.96,2.92,2.61,ปลาค้าววิทยานุสรณ์,เมือง,อำนาจเจริญ,37000
5813402948,ไม่แยกสาขา,1,10,2558,โควตาพื้นที่บริการ,"คณะวิศวกรรมศาสตร์""",ม.6,1010480303,3.07,3.4,3.7,2.6,3.4,2.82,3.83,3.2,3.5,พะทายพิทยาคม,ท่าอุเทน,นครพนม,48120
5813402248,ไม่แยกสาขา,1,10,2558,โควตาพื้นที่บริการ,"คณะวิศวกรรมศาสตร์""",ม.6,1134100014,2.38,2.1,3.55,2.38,3.1,1.97,3.4,2.85,2.23,อัสสัมชัญอุบลราชธานี,เมือง,อุบลราชธานี,34000
5813401010,ไม่แยกสาขา,1,10,2558,โควตาพื้นที่บริการ,"คณะวิศวกรรมศาสตร์""",ม.6,1010340102,3.27,3.5,4,3.12,4,3.22,3.53,3.28,2.97,นารีนุกูล,เมือง,อุบลราชธานี,34000
5813401478,ไม่แยกสาขา,1,10,2558,โควตาพื้นที่บริการ,"คณะวิศวกรรมศาสตร์""",ม.6,1011330101,2.68,2.5,3.75,1.6,3.3,2.8,2.8,3.05,2.94,ศรีสะเกษวิทยาลัย,เมือง,ศรีสะเกษ,33000
5813403375,ไม่แยกสาขา,1,10,2558,โควตาพื้นที่บริการ,"คณะวิศวกรรมศาสตร์""",ม.6,1010340102,2.33,2.5,3.9,2.1,4,1.82,3.57,2.57,1.95,นารีนุกูล,เมือง,อุบลราชธานี,34000
5813404517,ไม่แยกสาขา,1,10,2558,โควตาพื้นที่บริการ,"คณะวิศวกรรมศาสตร์""",ม.6,1010340102,2.55,2.6,3.8,2.5,3.8,2.39,3.11,2.39,2.09,นารีนุกูล,เมือง,อุบลราชธานี,34000
5813403159,ไม่แยกสาขา,1,10,2558,โควตาพื้นที่ภาคอิสาน,"คณะวิศวกรรมศาสตร์""",ม.6,1440011101,2.26,2.1,3.59,2.36,3,2.03,2.71,2.06,2,โรงเรียนสาธิตมหาวิทยาลัยขอนแก่น (มอดินแดง),,ขอนแก่น,
5813402597,ไม่แยกสาขา,1,10,2558,โควตาพื้นที่บริการ,"คณะวิศวกรรมศาสตร์""",ม.6,1010340102,2.59,3,3.9,1.84,3.9,2.21,3.76,3,2.47,นารีนุกูล,เมือง,อุบลราชธานี,34000
5813405960,ไม่แยกสาขา,3,10,2558,โควตาพื้นที่บริการ,"คณะศิลปศาสตร์""",ม.6,1010340201,2.6,2.9,3.2,1.85,3.78,2.45,2.53,3.39,2.54,ศรีเมืองวิทยาคาร,ศรีเมืองใหม่,อุบลราชธานี,34250
5813406416,ไม่แยกสาขา,3,10,2558,โควตาพื้นที่บริการ,"คณะบริหารศาสตร์""",ม.6,1010340101,2.2,1.6,3.55,1.74,2.4,1.81,3.12,2.4,2.39,เบ็ญจะมะมหาราช,เมือง,อุบลราชธานี,34000
5813403437,ไม่แยกสาขา,1,10,2558,โควตาพื้นที่บริการ,"คณะบริหารศาสตร์""",ม.6,1010340901,2.63,3.3,3.66,2.03,3.4,2.52,3.5,2.83,2.67,น้ำยืนวิทยา,น้ำยืน,อุบลราชธานี,34260
5813405897,ไม่แยกสาขา,1,10,2558,โควตาพื้นที่บริการ,"คณะบริหารศาสตร์""",ม.6,1134100017,3.19,3.6,3.55,3.56,3.6,3.01,3.15,3.26,2.62,อาเวมารีอา,เมือง,อุบลราชธานี,34000
5813406104,ไม่แยกสาขา,3,10,2558,โควตาพื้นที่บริการ,"คณะบริหารศาสตร์""",ม.6,1010490109,3.88,3.7,4,3.58,3.8,3.94,4,3.96,3.95,จุฬาภรณราชวิทยาลัย มุกดาหาร,เมือง,มุกดาหาร,49000
5813403787,ไม่แยกสาขา,1,10,2558,โครงการผลิตบัณฑิต(การจัดการธุรกิจค้าปลีก) สนับสนุนทุนการศึกษาจาก บริษัท ซีพี ออลล์ จำกัด (มหาชน),"คณะบริหารศาสตร์""",ม.6,1010340701,2.38,2.4,3.05,2.16,3.3,2.27,2.34,2.42,2.2,เดชอุดม,เดชอุดม,อุบลราชธานี,34160
5813404964,ไม่แยกสาขา,1,10,2558,โควตาพื้นที่บริการ,"วิทยาลัยแพทยศาสตร์และการสาธารณสุข""",ม.6,1010342121,2.81,2.45,3.9,3.22,3.66,2.32,2.45,3.1,2.5,ยุวทูตศึกษา 2 อุบล,เมือง,อุบลราชธานี,34000
5813403204,ไม่แยกสาขา,1,10,2558,โควตาพื้นที่บริการ,"วิทยาลัยแพทยศาสตร์และการสาธารณสุข""",ม.6,1010450401,3.67,3.6,3.95,3.64,4,3.59,4,3.75,3.57,จตุรพักตรพิมานรัชดาภิเษก,จตุรพักตรพิมาน,ร้อยเอ็ด,45180
5813402398,ไม่แยกสาขา,1,10,2558,โควตาพื้นที่บริการ,"วิทยาลัยแพทยศาสตร์และการสาธารณสุข""",ม.6,1010340101,3.21,3.3,3.75,2.8,3.4,2.95,3.88,3.65,3.14,เบ็ญจะมะมหาราช,เมือง,อุบลราชธานี,34000
5813401302,ไม่แยกสาขา,1,10,2558,โควตาพื้นที่บริการ,"วิทยาลัยแพทยศาสตร์และการสาธารณสุข""",ม.6,1010340101,3.26,2.9,3.9,3.5,3.6,2.9,3.72,3.25,3.25,เบ็ญจะมะมหาราช,เมือง,อุบลราชธานี,34000
5813400593,ไม่แยกสาขา,1,10,2558,โควตาพื้นที่บริการ,"คณะรัฐศาสตร์""",ม.6,1134100014,2.16,2.2,3.55,1.44,3,2,3.6,2.42,2,อัสสัมชัญอุบลราชธานี,เมือง,อุบลราชธานี,34000
5813401168,ไม่แยกสาขา,1,10,2558,โควตาพื้นที่บริการ,"คณะรัฐศาสตร์""",ม.6,1010370101,2.61,1.9,3.2,1.94,3.4,2.56,3,3.43,2.91,อำนาจเจริญ,เมือง,อำนาจเจริญ,37000
5813403239,ไม่แยกสาขา,1,10,2558,โควตาพื้นที่บริการ,"คณะรัฐศาสตร์""",ม.6,1010370101,3.32,3.2,3.9,2.66,3.7,3.6,3.55,3.96,2.77,อำนาจเจริญ,เมือง,อำนาจเจริญ,37000
5813403677,ไม่แยกสาขา,1,10,2558,โควตารับตรงทั่วไป,"คณะวิทยาศาสตร์""",ม.6,1010350301,3.6,4,3.75,3.36,3.9,3.65,3.75,3.71,3.26,กุดชุมวิทยาคม,กุดชุม,ยโสธร,35140
5813406048,ไม่แยกสาขา,3,10,2558,โควตารับตรงทั่วไป,"คณะวิศวกรรมศาสตร์""",ม.6,1011320701,2.56,3.3,3.7,1.72,3.6,2.03,3.72,3.21,2.6,รัตนบุรี,รัตนบุรี,สุรินทร์,32130
5813405747,ไม่แยกสาขา,1,10,2558,โควตารับตรงทั่วไป,"คณะวิศวกรรมศาสตร์""",ม.6,1110100071,3.58,3.6,3.9,4,3.7,3.27,3.85,3.66,3.52,ปราโมชวิทยารามอินทรา,บางเขน,กรุงเทพมหานคร,10220
5813402757,ไม่แยกสาขา,1,10,2558,โควตารับตรงทั่วไป,"คณะวิศวกรรมศาสตร์""",ม.6,1010460101,3.35,3.7,4,3.56,4,3,3.54,3.76,3.12,กาฬสินธุ์พิทยาสรรพ์,เมือง,กาฬสินธุ์,46000
5813403870,ไม่แยกสาขา,1,10,2558,โควตารับตรงทั่วไป,"คณะวิศวกรรมศาสตร์""",ม.6,1011360101,3.34,4,3.75,2.9,4,2.75,4,3.6,3.75,ชัยภูมิภักดีชุมพล,เมือง,ชัยภูมิ,36000
5813400999,ไม่แยกสาขา,1,10,2558,โควตารับตรงทั่วไป,"คณะวิศวกรรมศาสตร์""",ม.6,1010340102,3.25,3.4,3.9,3.06,3.9,3.12,3.73,3.17,3.1,นารีนุกูล,เมือง,อุบลราชธานี,34000
5813403846,ไม่แยกสาขา,1,10,2558,โควตารับตรงทั่วไป,"คณะวิศวกรรมศาสตร์""",ม.6,3090200105,2.54,2.3,3.2,2.42,3.6,2.09,3.57,3.35,2.7,เทศบาล 5 (วัดหัวป้อมนอก),,สงขลา,
5813405164,ไม่แยกสาขา,1,10,2558,โควตารับตรงทั่วไป,"คณะวิศวกรรมศาสตร์""",ม.6,1010490101,2.36,3.1,3.4,2.11,1.75,1.97,2.94,2.78,2.5,มุกดาหาร,เมือง,มุกดาหาร,49000
5813403265,ไม่แยกสาขา,1,10,2558,โควตารับตรงทั่วไป,"คณะวิศวกรรมศาสตร์""",ม.6,1009410114,3.64,3.4,4,3.5,3.9,3.62,3.93,3.35,3.76,อุดรพัฒนศึกษา,เมือง,อุดรธานี,41000
5813406240,ไม่แยกสาขา,3,10,2558,โควตารับตรงทั่วไป,"คณะวิศวกรรมศาสตร์""",ม.6,1010350401,2.71,1.9,3.8,2.36,3.7,2.54,3.71,3.1,2.65,คำเขื่อนแก้วชนูปถัมภ์,คำเขื่อนแก้ว,ยโสธร,35110
5813405609,ไม่แยกสาขา,1,10,2558,โควตารับตรงทั่วไป,"คณะวิศวกรรมศาสตร์""",ม.6,1010350401,2.63,2.7,3.9,2.03,3.6,2.44,3.5,3.6,2.15,คำเขื่อนแก้วชนูปถัมภ์,คำเขื่อนแก้ว,ยโสธร,35110
5813400973,ไม่แยกสาขา,1,10,2558,โควตารับตรงทั่วไป,"คณะวิศวกรรมศาสตร์""",ม.6,3033100139,3.13,3.22,3.85,3.22,3,2.48,3.38,3.02,3.37,ขุนหาญวิทยาสรรค์,ขุนหาญ,ศรีสะเกษ,33150
5813405334,ไม่แยกสาขา,1,10,2558,โควตารับตรงทั่วไป,"คณะวิศวกรรมศาสตร์""",ม.6,3033100139,3.09,3.18,3.75,3.06,3.33,2.55,3.3,3.16,3.19,ขุนหาญวิทยาสรรค์,ขุนหาญ,ศรีสะเกษ,33150
5813403648,ไม่แยกสาขา,1,10,2558,โควตารับตรงทั่วไป,"คณะวิศวกรรมศาสตร์""",ม.6,1010341502,2.33,2.3,3.05,1.54,2.9,2.39,2.8,2.17,2.51,ห้วยขะยุงวิทยา,วารินชำราบ,อุบลราชธานี,34310
5813404922,ไม่แยกสาขา,1,10,2558,โควตารับตรงทั่วไป,"คณะวิศวกรรมศาสตร์""",ม.6,1010340102,3.08,3,3.8,3.44,4,3.01,2.96,3.1,2.45,นารีนุกูล,เมือง,อุบลราชธานี,34000
5813404209,ไม่แยกสาขา,1,10,2558,โควตารับตรงทั่วไป,"คณะวิศวกรรมศาสตร์""",ม.6,1011331001,3.2,2.57,4,2.84,3.7,3.18,3.71,3.23,3.14,กำแพง,อุทมพรพิสัย,ศรีสะเกษ,33120
5813401098,ไม่แยกสาขา,1,10,2558,โควตารับตรงทั่วไป,"คณะวิศวกรรมศาสตร์""",ม.6,3034100107,2.3,3.5,3,1.8,2.5,1.7,2.93,3,2.32,เบ็ตตี้ดูเมน 2 ช่องเม็ก,สิรินธร,อุบลราชธานี,34350
5813403076,ไม่แยกสาขา,1,10,2558,โควตารับตรงทั่วไป,"คณะวิศวกรรมศาสตร์""",ม.6,1010340102,2.45,2.6,3.7,1.92,4,2.04,3.96,2.53,2.25,นารีนุกูล,เมือง,อุบลราชธานี,34000
5813401809,ไม่แยกสาขา,1,10,2558,โควตารับตรงทั่วไป,"คณะวิศวกรรมศาสตร์""",ม.6,1009390401,3.46,3.4,3.88,3.61,4,3.18,3.8,3.96,3.12,ศรีบุญเรืองวิทยาคาร,ศรีบุญเรือง,หนองบัวลำภู,47220
5813402993,ไม่แยกสาขา,1,10,2558,โควตารับตรงทั่วไป,"คณะวิศวกรรมศาสตร์""",ม.6,1010490101,2.31,2.6,3,2.09,3.12,1.84,3.16,2.71,2.7,มุกดาหาร,เมือง,มุกดาหาร,49000
5813402339,ไม่แยกสาขา,1,10,2558,โควตารับตรงทั่วไป,"คณะวิศวกรรมศาสตร์""",ม.6,1010450504,2.75,2.71,3.65,1.96,2.9,2.83,4,2.75,2.63,ศรีธวัชวิทยาลัย,ธวัชบุรี,ร้อยเอ็ด,45170
5813402014,ไม่แยกสาขา,1,10,2558,โควตารับตรงทั่วไป,"คณะวิศวกรรมศาสตร์""",ม.6,1010451103,3.58,3.7,3.9,3.75,4,3.4,3.5,3.56,3.54,สุวรรณภูมิ,สุวรรณภูมิ,ร้อยเอ็ด,45130
5813402029,ไม่แยกสาขา,1,10,2558,โควตารับตรงทั่วไป,"คณะวิศวกรรมศาสตร์""",ม.6,1009390401,3.21,3.1,3.94,3.71,4,2.65,3.2,3.8,2.93,ศรีบุญเรืองวิทยาคาร,ศรีบุญเรือง,หนองบัวลำภู,47220
5813401798,ไม่แยกสาขา,1,10,2558,โควตารับตรงทั่วไป,"คณะวิศวกรรมศาสตร์""",ม.6,1011320401,2.65,2.8,3.85,2.26,3,2.39,3.7,3.03,2.66,จอมพระประชาสรรค์,จอมพระ,สุรินทร์,32180
5813403602,ไม่แยกสาขา,1,10,2558,โควตารับตรงทั่วไป,"คณะวิศวกรรมศาสตร์""",ม.6,1011360102,3.64,3.6,3.9,3.52,4,3.52,4,3.65,3.64,สตรีชัยภูมิ,เมือง,ชัยภูมิ,36000
5813401549,ไม่แยกสาขา,1,10,2558,โควตารับตรงทั่วไป,"คณะวิศวกรรมศาสตร์""",ม.6,1011300103,2.71,3,3.5,2.44,3.7,2.11,3.57,2.89,3.2,บุญวัฒนา,เมือง,นครราชสีมา,30000
5813402169,ไม่แยกสาขา,1,10,2558,โควตารับตรงทั่วไป,"คณะวิศวกรรมศาสตร์""",ม.6,1010490101,3.65,4,3.7,3.72,4,3.38,3.88,3.64,3.91,มุกดาหาร,เมือง,มุกดาหาร,49000
5813401904,ไม่แยกสาขา,1,10,2558,โควตารับตรงทั่วไป,"คณะวิศวกรรมศาสตร์""",ม.6,1010451501,3.03,3.1,3.8,2.7,3.5,2.79,3.83,3.5,2.69,เมยวดีพิทยาคม,เมยวดี,ร้อยเอ็ด,45250
5813404053,ไม่แยกสาขา,1,10,2558,โควตารับตรงทั่วไป,"คณะวิศวกรรมศาสตร์""",ม.6,1010490101,2.79,3.3,3.8,2.75,3.5,2.45,2.94,3.07,2.93,มุกดาหาร,เมือง,มุกดาหาร,49000
5813405622,ไม่แยกสาขา,1,10,2558,โควตารับตรงทั่วไป,"คณะวิศวกรรมศาสตร์""",ม.6,1010341501,2.75,2.92,3.95,2.52,3.6,2.31,3.62,3.5,2.3,ลือคำหาญวารินชำราบ,วารินชำราบ,อุบลราชธานี,34190
5813403004,ไม่แยกสาขา,1,10,2558,โควตารับตรงทั่วไป,"คณะวิศวกรรมศาสตร์""",ม.6,1010480103,3.67,3.1,3.96,3.87,4,3.65,3.83,3.6,3.54,นครพนมวิทยาคม,เมือง,นครพนม,48000
5813402382,ไม่แยกสาขา,1,10,2558,โควตารับตรงทั่วไป,"คณะวิศวกรรมศาสตร์""",ม.6,1010342121,2.15,1.35,3.15,2.2,2.2,1.56,2.62,2.73,2.2,ยุวทูตศึกษา 2 อุบล,เมือง,อุบลราชธานี,34000
5813402746,ไม่แยกสาขา,1,10,2558,โควตารับตรงทั่วไป,"คณะวิศวกรรมศาสตร์""",ม.6,1010480103,3.65,3.8,4,3.31,3.9,3.64,3.86,3.65,3.7,นครพนมวิทยาคม,เมือง,นครพนม,48000
5813403401,ไม่แยกสาขา,1,10,2558,โควตารับตรงทั่วไป,"คณะวิศวกรรมศาสตร์""",ม.6,1010340102,2.69,3.1,3.8,2.96,4,2.1,3.31,3.03,2.36,นารีนุกูล,เมือง,อุบลราชธานี,34000
5813402113,ไม่แยกสาขา,1,10,2558,โควตารับตรงทั่วไป,"คณะวิศวกรรมศาสตร์""",ม.6,1010340101,2.83,2.9,3.7,2.7,2.9,2.49,3.69,3.03,2.52,เบ็ญจะมะมหาราช,เมือง,อุบลราชธานี,34000
5813403047,ไม่แยกสาขา,1,10,2558,โควตารับตรงทั่วไป,"คณะวิศวกรรมศาสตร์""",ม.6,1010340101,2.86,3.2,3.64,2.16,3.1,2.57,4,3.46,3.24,เบ็ญจะมะมหาราช,เมือง,อุบลราชธานี,34000
5813401664,ไม่แยกสาขา,1,10,2558,โควตารับตรงทั่วไป,"คณะวิศวกรรมศาสตร์""",ม.6,1010370101,3.31,2.8,3.8,3.38,3.3,3.06,3.75,3.26,3.77,อำนาจเจริญ,เมือง,อำนาจเจริญ,37000
5813403251,ไม่แยกสาขา,1,10,2558,โควตารับตรงทั่วไป,"คณะวิศวกรรมศาสตร์""",ม.6,1010370104,2.7,2.5,3.4,2.98,3.6,2.51,2.35,2.21,3.11,น้ำปลีกศึกษา,เมือง,อำนาจเจริญ,37000
5813405852,ไม่แยกสาขา,1,12,2558,โควตารับตรงทั่วไป,"คณะวิศวกรรมศาสตร์""",ม.6,1011330505,3.62,3.41,3.55,3.26,3.9,3.72,3.8,3.46,3.83,สวงษ์วิทยาคม,ขุขันธ์,ศรีสะเกษ,33140
5813402907,ไม่แยกสาขา,1,10,2558,โควตารับตรงทั่วไป,"คณะวิศวกรรมศาสตร์""",ม.6,1041010114,3.13,2.5,3.65,3.64,3,3.25,2.7,2.21,3.2,บ้านหมากแข้ง,เมือง,อุดรธานี,41000
5813405186,ไม่แยกสาขา,1,10,2558,โควตารับตรงทั่วไป,"คณะวิศวกรรมศาสตร์""",ม.6,1010451601,3.43,3.57,3.88,3.46,4,3.25,4,3.62,2.9,ศรีสมเด็จพิมพ์พัฒนาวิทยา,,ร้อยเอ็ด,45260
5813405690,ไม่แยกสาขา,1,10,2558,โควตารับตรงทั่วไป,"คณะวิศวกรรมศาสตร์""",ม.6,1009401402,3.63,3.2,4,3.3,3.5,4,3.58,3.73,3,ท่านางแนววิทยายน,แวงน้อย,ขอนแก่น,40230
5813401969,ไม่แยกสาขา,1,10,2558,โควตารับตรงทั่วไป,"คณะวิศวกรรมศาสตร์""",ม.6,1440011102,2.38,2.28,3.93,1.14,3.8,2.08,3.65,3.2,2,โรงเรียนสาธิตมหาวิทยาลัยขอนแก่น (ศึกษาศาสตร์) ระดับมัธยม,,ขอนแก่น,
5813406645,ไม่แยกสาขา,3,10,2558,โควตารับตรงทั่วไป,"คณะวิศวกรรมศาสตร์""",ปวช.,1333016101,2.08,3,3.16,1.16,0,2.3,2.14,3.16,1.62,วิทยาลัยเทคนิคศรีสะเกษ,เมือง,ศรีสะเกษ,33000
5813404909,ไม่แยกสาขา,1,10,2558,โควตารับตรงทั่วไป,"คณะวิศวกรรมศาสตร์""",ม.6,1010350401,3.4,2.6,3.75,3.83,3.7,3.38,3.85,3.1,3.05,คำเขื่อนแก้วชนูปถัมภ์,คำเขื่อนแก้ว,ยโสธร,35110
5813404448,ไม่แยกสาขา,1,10,2558,โควตารับตรงทั่วไป,"คณะวิศวกรรมศาสตร์""",ม.6,1011320501,2.1,1.7,2.5,2.66,2.3,1.72,2.6,1.97,2.21,ประสาทวิทยาคาร,ปราสาท,สุรินทร์,32140
5813403217,ไม่แยกสาขา,1,10,2558,โควตารับตรงทั่วไป,"คณะวิศวกรรมศาสตร์""",ม.6,1007670301,2.25,1.22,3.4,2.2,3.1,2.12,3.06,2.41,1.75,หล่มสักวิทยาคม,,เพชรบูรณ์,
5813403017,ไม่แยกสาขา,1,10,2558,โควตาพื้นที่บริการ,"คณะเภสัชศาสตร์""",ม.6,1010340101,3.46,3.7,4,3.72,3.7,3.05,3.96,4,3.16,เบ็ญจะมะมหาราช,เมือง,อุบลราชธานี,34000
5813406468,ไม่แยกสาขา,3,10,2558,โควตาพื้นที่บริการ,"คณะเภสัชศาสตร์""",ม.6,1011330301,3.1,3.41,3.7,2.44,3.4,2.93,3.65,3.42,3.4,กันทรารมณ์,กันทรารมย์,ศรีสะเกษ,33130
5813404081,ไม่แยกสาขา,1,10,2558,โควตาพื้นที่บริการ,"คณะเภสัชศาสตร์""",ม.6,1010480702,3.36,3.7,3.5,3,3.9,3.15,3.78,3.73,3.5,นาแกสามัคคีวิทยา,นาแก,นครพนม,48130
5813406691,ไม่แยกสาขา,3,10,2558,โควตาพื้นที่บริการ,"คณะเภสัชศาสตร์""",ม.6,1011330109,3.18,3.5,2,3.31,1.7,3.14,3.25,3.14,3.51,เฉลิมพระเกียรติสมเด็จพระศรีนครินทร์ ศรีสะเกษ,เมือง,ศรีสะเกษ,33000
5813406455,ไม่แยกสาขา,3,10,2558,โครงการพิเศษเพื่อผลิตเภสัชกร,"คณะเภสัชศาสตร์""",ม.6,1010480601,3.15,3.66,4,2.94,4,2.78,4,3.7,3.14,เรณูนครวิทยานุกูล,เรณูนคร,นครพนม,48170
5813404656,ไม่แยกสาขา,1,10,2558,โควตาขยายโอกาสทางการศึกษา,"คณะวิทยาศาสตร์""",ม.6,1010340202,3.43,3.75,3.58,3.93,4,3.06,3.91,3.67,2.82,เอือดใหญ่พิทยา,ศรีเมืองใหม่,อุบลราชธานี,34250
5813401463,ไม่แยกสาขา,1,10,2558,โควตาขยายโอกาสทางการศึกษา,"คณะวิทยาศาสตร์""",ม.6,1010450101,3.13,3.16,3.87,3.22,3.41,2.71,3.56,3.58,2.92,ร้อยเอ็ดวิทยาลัย,เมือง,ร้อยเอ็ด,45000
5813406613,ไม่แยกสาขา,3,10,2558,โควตาขยายโอกาสทางการศึกษา,"คณะเกษตรศาสตร์""",ม.6,1011330102,3.31,3.75,3.9,2.71,3.83,3.13,3.75,3.41,3.38,สตรีสิริเกศ,เมือง,ศรีสะเกษ,33000
5813406194,ไม่แยกสาขา,3,10,2558,โควตาขยายโอกาสทางการศึกษา,"คณะศิลปศาสตร์""",ม.6,1134100017,3.09,3.11,3.29,2.1,3.91,3.57,2.81,3.59,3.24,อาเวมารีอา,เมือง,อุบลราชธานี,34000
5813406371,ไม่แยกสาขา,3,10,2558,โควตาขยายโอกาสทางการศึกษา,"คณะรัฐศาสตร์""",ม.6,1010340102,1.86,2.33,3.5,1.16,3.81,1.56,2.83,2.08,1.68,นารีนุกูล,เมือง,อุบลราชธานี,34000
5813406544,ไม่แยกสาขา,3,10,2558,โควตาโครงการพิเศษ (กลุ่มทดสอบข้อเขียนทางวิชาการ),"คณะวิศวกรรมศาสตร์""",ม.6,1010340104,2.39,2.5,3.45,2.06,3,2.07,3.6,2.31,2.19,เตรียมอุดมศึกษาพัฒนาการอุบลราชธานี,เมือง,อุบลราชธานี,34000
5813406700,ไม่แยกสาขา,3,10,2558,โควตาโครงการพิเศษ (กลุ่มทดสอบข้อเขียนทางวิชาการ),"คณะวิศวกรรมศาสตร์""",ม.6,1134100014,1.7,2.33,3.58,1.21,3.33,1.27,2.66,2.05,1.15,อัสสัมชัญอุบลราชธานี,เมือง,อุบลราชธานี,34000
5813406490,ไม่แยกสาขา,3,10,2558,โควตาโครงการพิเศษ (กลุ่มทดสอบข้อเขียนทางวิชาการ),"คณะวิศวกรรมศาสตร์""",ม.6,1010461301,3.31,3.5,3.95,3.31,3.91,2.73,3.82,3.75,3.61,สมเด็จพิทยาคม,สมเด็จ,กาฬสินธุ์,46150
5813406358,ไม่แยกสาขา,3,10,2558,โควตาโครงการพิเศษ (กลุ่มทดสอบข้อเขียนทางวิชาการ),"คณะวิศวกรรมศาสตร์""",ม.6,1010350301,2.7,2.37,3.37,1.82,2.5,2.52,3.68,3.12,2.75,กุดชุมวิทยาคม,กุดชุม,ยโสธร,35140
5813406402,ไม่แยกสาขา,3,10,2558,โควตาโครงการพิเศษ (กลุ่มทดสอบข้อเขียนทางวิชาการ),"คณะวิศวกรรมศาสตร์""",ปวส./อนุปริญญา,1334016101,2.2,2.5,2,3,1.5,1,2,2,2,วิทยาลัยเทคนิคอุบลราชธานี,เมือง,อุบลราชธานี,34000
5813406499,ไม่แยกสาขา,3,10,2558,โควตาโครงการพิเศษ (กลุ่มทดสอบข้อเขียนทางวิชาการ),"คณะวิศวกรรมศาสตร์""",ม.6,1010370101,3.41,3.16,4,3.43,3.66,3.22,3.96,3.39,3.48,อำนาจเจริญ,เมือง,อำนาจเจริญ,37000
5813406528,ไม่แยกสาขา,3,10,2558,โควตาโครงการพิเศษ (กลุ่มทดสอบข้อเขียนทางวิชาการ),"คณะวิศวกรรมศาสตร์""",ม.6,1000100701,2.51,3.33,3.08,2.26,4,1.84,3.87,3.25,2.44,เตรียมอุดมศึกษา,พญาไท,กรุงเทพมหานคร,10330
5813406347,ไม่แยกสาขา,3,10,2558,โควตาโครงการพิเศษ (กลุ่มทดสอบข้อเขียนทางวิชาการ),"คณะวิศวกรรมศาสตร์""",ม.6,3034100101,2.45,2.91,3.5,2.31,3.68,1.74,3.28,2.69,2.33,พิบูลมังสาหาร,พิบูลมังสาหาร,อุบลราชธานี,34110
5813406635,ไม่แยกสาขา,3,10,0,โควตาโครงการพิเศษ (กลุ่มทดสอบข้อเขียนทางวิชาการ),"คณะวิศวกรรมศาสตร์""",ม.6,1010341501,2.61,2.83,3.5,1.88,3.16,2.43,3.45,3.02,1.83,ลือคำหาญวารินชำราบ,วารินชำราบ,อุบลราชธานี,34190
5813406573,ไม่แยกสาขา,3,10,2558,โควตาโครงการพิเศษ (กลุ่มทดสอบข้อเขียนทางวิชาการ),"คณะวิศวกรรมศาสตร์""",ม.6,1010350101,3.16,3,3.66,3.02,3.75,3,3.69,3.08,3.18,ยโสธรพิทยาคม,เมือง,ยโสธร,35000
5813405994,ไม่แยกสาขา,3,10,2558,โควตาโครงการพิเศษ (กลุ่มทดสอบข้อเขียนทางวิชาการ),"คณะวิศวกรรมศาสตร์""",ม.6,1012270901,3.55,3.8,3.5,2.9,3.6,3.5,3.68,3.9,3.92,วังสมบูรณ์วิทยาคม,,สระแก้ว,
5813406005,ไม่แยกสาขา,3,10,2558,โควตาโครงการพิเศษ (กลุ่มทดสอบข้อเขียนทางวิชาการ),"คณะวิศวกรรมศาสตร์""",ปวช.,1334016101,2.88,2,3,1.5,2,4,2,1.5,4,วิทยาลัยเทคนิคอุบลราชธานี,เมือง,อุบลราชธานี,34000
5813405985,ไม่แยกสาขา,3,10,2558,โควตาโครงการพิเศษ (กลุ่มทดสอบข้อเขียนทางวิชาการ),"คณะวิศวกรรมศาสตร์""",ม.6,1010340101,2.26,1.75,3.2,1.71,3.41,2.12,3.53,1.83,2.32,เบ็ญจะมะมหาราช,เมือง,อุบลราชธานี,34000
5813406599,ไม่แยกสาขา,3,10,2558,โควตาโครงการพิเศษ (กลุ่มทดสอบข้อเขียนทางวิชาการ),"คณะวิศวกรรมศาสตร์""",ม.6,1009470101,2.56,2.3,3.33,2.95,3.58,2.03,3.4,2.77,2.41,สกลราชวิทยานุกูล,เมือง,สกลนคร,47000
5813406403,ไม่แยกสาขา,3,10,2558,โควตาโครงการพิเศษ (กลุ่มทดสอบข้อเขียนทางวิชาการ),"คณะวิศวกรรมศาสตร์""",ปวส./อนุปริญญา,1334016101,2.6,0,0,0,0,0,0,0,0,วิทยาลัยเทคนิคอุบลราชธานี,เมือง,อุบลราชธานี,34000
5813406149,ไม่แยกสาขา,3,10,2558,โควตาโครงการพิเศษ (กลุ่มทดสอบข้อเขียนทางวิชาการ),"คณะวิศวกรรมศาสตร์""",ม.6,1011330101,2.57,2.41,3.45,2.41,3.08,2.78,2.68,1.91,2.42,ศรีสะเกษวิทยาลัย,เมือง,ศรีสะเกษ,33000
5813406023,ไม่แยกสาขา,3,10,0,โควตาโครงการพิเศษ (กลุ่มทดสอบข้อเขียนทางวิชาการ),"คณะวิศวกรรมศาสตร์""",ม.6,1010490110,3.11,3.16,3.54,2.88,3.58,2.78,3.75,3.58,3,ดงมอนวิทยาคม,เมือง,มุกดาหาร,49000
5813406326,ไม่แยกสาขา,3,10,2558,โควตาโครงการพิเศษ (กลุ่มทดสอบข้อเขียนทางวิชาการ),"คณะวิศวกรรมศาสตร์""",ม.6,1010340104,2.06,2.33,3.81,1.65,1.83,1.81,3.12,1.76,2.16,เตรียมอุดมศึกษาพัฒนาการอุบลราชธานี,เมือง,อุบลราชธานี,34000
5813406266,ไม่แยกสาขา,3,10,0,โควตาโครงการพิเศษ (กลุ่มทดสอบข้อเขียนทางวิชาการ),"คณะวิศวกรรมศาสตร์""",ม.6,1010340101,1.71,1.4,2.7,1.33,2.41,1.47,2.56,1.57,1.89,เบ็ญจะมะมหาราช,เมือง,อุบลราชธานี,34000
5813406513,ไม่แยกสาขา,3,10,2558,โควตาโครงการพิเศษ (กลุ่มทดสอบข้อเขียนทางวิชาการ),"คณะวิศวกรรมศาสตร์""",ปวช.,1337016101,3.47,3,4,3,4,3,4,3.5,3,วิทยาลัยเทคนิคอำนาจเจริญ,เมือง,อำนาจเจริญ,37000
5813406223,ไม่แยกสาขา,3,10,2558,โควตาโครงการพิเศษ (กลุ่มทดสอบข้อเขียนทางวิชาการ),"คณะวิศวกรรมศาสตร์""",ม.6,1010340102,1.62,1.41,3.41,1.38,2.91,1.21,2.87,1.73,1.6,นารีนุกูล,เมือง,อุบลราชธานี,34000
5813406321,ไม่แยกสาขา,3,10,2558,โควตาโครงการพิเศษ (กลุ่มทดสอบข้อเขียนทางวิชาการ),"คณะวิศวกรรมศาสตร์""",ม.6,1011330301,2.85,3.5,3.41,2.54,3.83,2.46,3.56,3.3,2.91,กันทรารมณ์,กันทรารมย์,ศรีสะเกษ,33130
5813406333,ไม่แยกสาขา,3,10,2558,โควตาโครงการพิเศษ (กลุ่มทดสอบข้อเขียนทางวิชาการ),"คณะวิศวกรรมศาสตร์""",ม.6,1010370101,2.58,2.91,3.58,2.01,3.75,2.26,3.33,3.31,2.46,อำนาจเจริญ,เมือง,อำนาจเจริญ,37000
5813406383,ไม่แยกสาขา,3,10,2558,โควตาโครงการพิเศษ (กลุ่มทดสอบข้อเขียนทางวิชาการ),"คณะวิศวกรรมศาสตร์""",ม.6,1010340102,1.77,1.5,2.41,1.6,2.5,1.42,3.35,1.71,1.85,นารีนุกูล,เมือง,อุบลราชธานี,34000
5813406308,ไม่แยกสาขา,3,10,2558,โควตาโครงการพิเศษ (กลุ่มทดสอบข้อเขียนทางวิชาการ),"คณะวิศวกรรมศาสตร์""",ม.6,1010490301,3.55,3.76,3.66,3.68,3.75,3.38,3.55,3.69,3.61,ดอนตาลวิทยา,ดอนตาล,มุกดาหาร,49120
5813406160,ไม่แยกสาขา,3,10,2558,โควตาโครงการพิเศษ (กลุ่มทดสอบข้อเขียนทางวิชาการ),"คณะวิศวกรรมศาสตร์""",ม.6,1010340102,1.6,1.91,2.32,1.13,2.75,1.2,2.3,1.96,1.79,นารีนุกูล,เมือง,อุบลราชธานี,34000
5813406590,ไม่แยกสาขา,3,10,2558,โควตาโครงการพิเศษ (กลุ่มทดสอบข้อเขียนทางวิชาการ),"คณะวิศวกรรมศาสตร์""",ม.6,1010451101,2.22,2.58,3.33,1.63,2.16,1.96,2.93,3.33,1.84,สุวรรณภูมิพิทยไพศาล,สุวรรณภูมิ,ร้อยเอ็ด,45130
5813406040,ไม่แยกสาขา,3,10,2558,โควตาโครงการพิเศษ (กลุ่มทดสอบข้อเขียนทางวิชาการ),"คณะวิศวกรรมศาสตร์""",ม.6,1010340104,2.77,2.25,3.75,2.9,3.08,2.6,3.6,2.25,2.59,เตรียมอุดมศึกษาพัฒนาการอุบลราชธานี,เมือง,อุบลราชธานี,34000
5813406132,ไม่แยกสาขา,3,10,2558,โควตาโครงการพิเศษ (กลุ่มทดสอบข้อเขียนทางวิชาการ),"คณะวิศวกรรมศาสตร์""",ม.6,1011330403,1.68,1.16,3.16,1.35,1.95,2.16,1.84,1.67,1.65,บึงมะลูวิทยา,กันทรลักษ์,ศรีสะเกษ,33110
5813406178,ไม่แยกสาขา,3,10,2558,โควตาโครงการพิเศษ (กลุ่มทดสอบข้อเขียนทางวิชาการ),"คณะวิศวกรรมศาสตร์""",ม.6,1010342121,2.79,3.4,3.65,2.15,3.55,3,3.31,2.9,2.23,ยุวทูตศึกษา 2 อุบล,เมือง,อุบลราชธานี,34000
5813406205,ไม่แยกสาขา,3,10,2558,โควตาโครงการพิเศษ (กลุ่มทดสอบข้อเขียนทางวิชาการ),"คณะวิศวกรรมศาสตร์""",ม.6,3030100157,2,1.75,3.04,1.87,2.33,1.56,2.94,2.46,2.38,ประทาย,ประทาย,นครราชสีมา,30180
5813406252,ไม่แยกสาขา,3,10,0,โควตาโครงการพิเศษ (กลุ่มทดสอบข้อเขียนทางวิชาการ),"คณะวิศวกรรมศาสตร์""",ม.6,1010340102,2.41,2.2,3.33,1.58,3.25,2.33,3.25,2.3,2.24,นารีนุกูล,เมือง,อุบลราชธานี,34000
5813406714,ไม่แยกสาขา,3,10,0,โควตาโครงการพิเศษ (กลุ่มทดสอบข้อเขียนทางวิชาการ),"คณะวิศวกรรมศาสตร์""",ม.6,3046100111,2.84,2.62,3.81,2.47,3,2.61,3.4,3.25,3.19,บัวขาว,กุฉินารายณ์,กาฬสินธุ์,46110
5813406535,ไม่แยกสาขา,3,10,2558,โควตาโครงการพิเศษ (กลุ่มทดสอบข้อเขียนทางวิชาการ),"คณะวิศวกรรมศาสตร์""",ม.6,1010341501,1.66,1.82,2.41,1.26,1.83,1.34,2.37,2.55,1.38,ลือคำหาญวารินชำราบ,วารินชำราบ,อุบลราชธานี,34190
5813406610,ไม่แยกสาขา,3,10,2558,โควตาโครงการพิเศษ (กลุ่มทดสอบข้อเขียนทางวิชาการ),"คณะวิศวกรรมศาสตร์""",ม.6,1004830103,2.69,2.66,3.5,2.98,3.75,2.19,3.61,2.43,2.5,เฉลิมพระเกียรติสมเด็จพระศรีนครินทร์ ภูเก็ต,,ภูเก็ต,
5813406072,ไม่แยกสาขา,3,10,2558,โควตาโครงการพิเศษ (กลุ่มทดสอบข้อเขียนทางวิชาการ),"คณะวิศวกรรมศาสตร์""",ม.6,1011320101,3.05,3,3.75,2.79,3.25,2.22,3.55,3.05,3.23,สุรวิทยาคาร,เมือง,สุรินทร์,32000
5813406139,ไม่แยกสาขา,3,10,2558,โควตาโครงการพิเศษ (กลุ่มทดสอบข้อเขียนทางวิชาการ),"คณะวิศวกรรมศาสตร์""",ม.6,1010370101,2.83,2.46,3.66,2.25,2.91,2.89,3.26,3.27,2.8,อำนาจเจริญ,เมือง,อำนาจเจริญ,37000
5813405963,ไม่แยกสาขา,3,10,2558,โควตาโครงการพิเศษ (กลุ่มทดสอบข้อเขียนทางวิชาการ),"คณะวิศวกรรมศาสตร์""",ม.6,1010451103,3.15,3.5,4,3.1,3.75,2.73,3.5,3.5,3,สุวรรณภูมิ,สุวรรณภูมิ,ร้อยเอ็ด,45130
5813406555,ไม่แยกสาขา,3,10,2558,โควตาโครงการพิเศษ (กลุ่มทดสอบข้อเขียนทางวิชาการ),"คณะวิศวกรรมศาสตร์""",ปวช.,1334016101,2.48,4,2,1,3,2.33,2.54,1.25,2.56,วิทยาลัยเทคนิคอุบลราชธานี,เมือง,อุบลราชธานี,34000
5813406288,ไม่แยกสาขา,3,10,2558,โควตาโครงการพิเศษ (กลุ่มทดสอบข้อเขียนทางวิชาการ),"คณะวิศวกรรมศาสตร์""",ม.6,1011330401,2.36,2.39,3.5,1.9,2.25,2.18,2.68,3.06,2.14,กันทรลักษ์วิทยา,กันทรลักษ์,ศรีสะเกษ,33110
5813406736,ไม่แยกสาขา,3,10,0,โควตาโครงการพิเศษ (กลุ่มทดสอบข้อเขียนทางวิชาการ),"คณะวิศวกรรมศาสตร์""",ม.6,1011300101,2.05,2.33,3.41,1.75,2.83,1.9,2.65,2.16,1.16,ราชสีมาวิทยาลัย,เมือง,นครราชสีมา,30000